{"Code": "AI", "Name": "UOB KAY HIAN SEKURITAS", "StatusCode": "01", "StatusName": "Aktif", "Address": "UOB Plaza Thamrin Nine, Lt. 36  Jln. M.H. Thamrin Kav. 8 - 10  ", "City": "Jakarta", "Zip": "10230", "Phone": "(62-21) 2993 3888", "Fax": "(62-21) 3190 7608", "Email": "- ", "Website": "www.uobkayhian.com", "JoinDate": "0001-01-01T00:00:00", "JoinStatus": null, "StatusId": "1", "CompanyStatus": "Patungan", "NPWPNo": "01.572.718.3-054.000", "AktaNo": "No. 11 Tgl. 4 Nopember 1991", "ModalDasar": 130000000000.0, "ModalDisetor": 130000000000.0, "OperationalLicense": "Penjamin Emisi Efek, Perantara Pedagang Efek", "Mkbd": 340751995450.61, "Logo": "/StaticData/Brokers/Logo/AI.jpg", "Licenses": [{"BrokerCode": "AI", "LicenseCode": "Marjin", "LicenseNo": null, "LicenseDate": "2006-11-07T00:00:00", "LicenseType": "2", "Links": []}, {"BrokerCode": "AI", "LicenseCode": "PEE", "LicenseNo": "KEP-15/PM/1995", "LicenseDate": "1995-05-26T00:00:00", "LicenseType": "1", "Links": []}, {"BrokerCode": "AI", "LicenseCode": "PPE", "LicenseNo": "KEP-149/PM/1992", "LicenseDate": "1992-03-17T00:00:00", "LicenseType": "1", "Links": []}], "Managements": [{"Id": 53, "BrokerCode": "AI", "JobPositionId": "10", "JobPositionName": "Komisaris Utama", "PersonName": "WEE EE CHAO", "Links": []}, {"Id": 54, "BrokerCode": "AI", "JobPositionId": "79", "JobPositionName": "Komisaris Independen", "PersonName": "KURNIA SALIM", "Links": []}, {"Id": 55, "BrokerCode": "AI", "JobPositionId": "20", "JobPositionName": "Direktur Utama", "PersonName": "YACINTA FABIANA TJANG", "Links": []}, {"Id": 56, "BrokerCode": "AI", "JobPositionId": "21", "JobPositionName": "Direktur", "PersonName": "RONALD LOHANATA", "Links": []}, {"Id": 57, "BrokerCode": "AI", "JobPositionId": "21", "JobPositionName": "Direktur", "PersonName": "AHMAD FADJAR SIATA", "Links": []}], "ShareHolders": [{"BrokerCode": "AI", "ShareHolderNo": 1, "ShareHolderName": "UOB KAY HIAN HOLDINGS LIMITED", "Status": "Badan Hukum", "NumberOfShare": 99.0, "OwnershipStatus": "Asing", "Country": "Singapura", "Links": []}, {"BrokerCode": "AI", "ShareHolderNo": 2, "ShareHolderName": "Yacinta Fabiana Tjang", "Status": "Perorangan", "NumberOfShare": 1.0, "OwnershipStatus": "Lokal", "Country": "Indonesia", "Links": []}], "BranchOffice": [{"BrokerCode": "AI", "No": 1, "Address": "Universitas Narotama Surabaya\nJl. Arief Rachman Hakim 51\n", "City": "Surabaya", "Zip": "60117", "Phone": "031-5927742", "Fax": "031-5931213", "Links": []}, {"BrokerCode": "AI", "No": 2, "Address": "Graha Pacific 8th Floor\nJl. Basuki Rachmad No. 87 - 91 ", "City": "Surabaya", "Zip": "60271", "Phone": "031-28954888", "Fax": "031-5350422", "Links": []}, {"BrokerCode": "AI", "No": 3, "Address": "Jl. Indragiri 12 - 18", "City": "Surabaya", "Zip": "-", "Phone": "031-5621999", "Fax": "031-5630331", "Links": []}, {"BrokerCode": "AI", "No": 4, "Address": "Jl. Buah Batu No. 92A", "City": "Bandung", "Zip": "-", "Phone": "022-7331644", "Fax": "022-7331645", "Links": []}, {"BrokerCode": "AI", "No": 5, "Address": "The Grand Arteri Gading\nJl. Arteri Gading Blok E-1 No. 9 RT 9 RW 26\nKel. Pegangsaan Dua", "City": "Jakarta Utara", "Zip": "14250", "Phone": "021-22458990", "Fax": "", "Links": []}, {"BrokerCode": "AI", "No": 6, "Address": "Jl. Guru Patimpus No. I-S\nKec. Medan Barat\nKel. Kesawan", "City": "Medan", "Zip": "20111", "Phone": "061-4564528", "Fax": "061-4564529", "Links": []}, {"BrokerCode": "AI", "No": 7, "Address": "Komplek Ruko Bandengan Megah\nJl. Bandengan Utara Kav. 81 Blok A1", "City": "Jakarta Utara", "Zip": "-", "Phone": "021-66674959", "Fax": "021-66674960", "Links": []}, {"BrokerCode": "AI", "No": 8, "Address": "Ruko Metro Plaza Blok B5\nJl. Mataram No.970\nKel. Lamper Kidul, Kec. Semarang Selatan", "City": "Semarang", "Zip": "-", "Phone": "024-86001230", "Fax": "024-86001235", "Links": []}, {"BrokerCode": "AI", "No": 9, "Address": "Jl. Pluit Sakti Raya No. 42 A Blok E No. 26\nPluit", "City": "Jakarta Utara", "Zip": "-", "Phone": "021-66678420", "Fax": "021-66678423", "Links": []}, {"BrokerCode": "AI", "No": 10, "Address": "Jl. Tukad Batanghari No. 44\nRukan No. 1", "City": "Denpasar", "Zip": "80225", "Phone": "0361-4723274", "Fax": "0361-4723212", "Links": []}, {"BrokerCode": "AI", "No": 11, "Address": "Kompleks Ruko Prisma Kedoya Plaza\nBlok D/24\nJl. Prisma Raya\nKebon Jeruk", "City": "Jakarta Barat", "Zip": "11530", "Phone": "021-53670638", "Fax": "031-53670709", "Links": []}, {"BrokerCode": "AI", "No": 12, "Address": "Pojok BEI / Galeri Investasi\nSTIE Asia Malang\nJl. Soekarno Hatta Rembuksari 1A", "City": "Malang", "Zip": "-", "Phone": "0341-414828", "Fax": "0341-414829", "Links": []}, {"BrokerCode": "AI", "No": 13, "Address": "Jl. Raden Mattaher No. 15 A\nPasar Jambi", "City": "Jambi", "Zip": "36111", "Phone": "0741-24180", "Fax": "", "Links": []}, {"BrokerCode": "AI", "No": 14, "Address": "Kantor Perwakilan Bursa Efek Solo\nGraha Prioritas Solo\nJl, Slamet Riyadi 302 - 304\n", "City": "Surakarta", "Zip": "57141", "Phone": "0271-725079", "Fax": "", "Links": []}, {"BrokerCode": "AI", "No": 15, "Address": "Jl. MT. Haryono No.50", "City": "Solo", "Zip": "57139", "Phone": "0271-725079", "Fax": "", "Links": []}, {"BrokerCode": "AI", "No": 16, "Address": "Pojok BEI/Galeri Investasi\nUniversitas Pekalongan\nJl. Sriwijaya No. 3\nPekalongan", "City": "Jawa Tengah", "Zip": "51111", "Phone": "024-86001230", "Fax": "024-86001235", "Links": []}, {"BrokerCode": "AI", "No": 17, "Address": "Pojok BEI/Galeri Investasi\nUniversitas Islam Batik Surakarta\nJl. KH. Agus Salim No. 10\nSurakarta", "City": "Jawa Tengah", "Zip": "57147", "Phone": "0271-725079", "Fax": "", "Links": []}, {"BrokerCode": "AI", "No": 18, "Address": "Puri Indah Financial Tower\nJl. Puri Lkr. Dalam, Jl. Puri Indah Raya Blok T No. 8 RT. 1 / RW .2\nKembangan Selatan, Jakarta Barat", "City": "Jakarta", "Zip": "11610", "Phone": "021-22587925", "Fax": "021-22587925", "Links": []}, {"BrokerCode": "AI", "No": 19, "Address": "Area Ruko The Gardin Kahuripan Nirwana\nBlok D.28, Kel. Sumput, Kec. Sidoarjo\nKabupaten Sidoarjo", "City": "Sidoarjo", "Zip": "61228", "Phone": "031-99710947", "Fax": "", "Links": []}, {"BrokerCode": "AI", "No": 20, "Address": "Pojok BEI/Galeri Investasi\nUniversitas Tridinanti Palembang\nJalan Kapten Marzuki No. 2446\nKamboja", "City": "Palembang", "Zip": "-", "Phone": "0711-5734896", "Fax": "", "Links": []}, {"BrokerCode": "AI", "No": 21, "Address": "Kantor Perwakilan BEI\nJL. Jenderal Sudirman No. 36 B, RT/RW: 021/007\nKel. Sekip Jaya, Kec. Kemuning\n", "City": "Palembang", "Zip": "30128", "Phone": "0711-5734896", "Fax": "", "Links": []}], "Links": []}