{"Code": "AT", "Name": "PHINTRACO SEKURITAS", "StatusCode": "01", "StatusName": "Aktif", "Address": "The East Tower, Lt. 16, Jl. DR. Ide Anak Agung Gde Agung Kav. E3.2 No.1", "City": "Jakarta", "Zip": "12950", "Phone": "2555-6138", "Fax": "2555-6139", "Email": "- ", "Website": "www.phintracosecurities.com", "JoinDate": "0001-01-01T00:00:00", "JoinStatus": null, "StatusId": "1", "CompanyStatus": "Lokal", "NPWPNo": "01.911.472.7-054.000", "AktaNo": "No. 1, tgl. 1 Juli 1999", "ModalDasar": 300000000.0, "ModalDisetor": 200000000000.0, "OperationalLicense": "Perantara Pedagang Efek", "Mkbd": 85877503946.5, "Logo": "/StaticData/Brokers/Logo/AT.jpg", "Licenses": [{"BrokerCode": "AT", "LicenseCode": "Marjin", "LicenseNo": null, "LicenseDate": "2017-10-20T00:00:00", "LicenseType": "2", "Links": []}, {"BrokerCode": "AT", "LicenseCode": "PPE", "LicenseNo": "KEP-08/PM/PPE/2000", "LicenseDate": "2000-12-05T00:00:00", "LicenseType": "1", "Links": []}], "Managements": [{"Id": 107, "BrokerCode": "AT", "JobPositionId": "10", "JobPositionName": "Komisaris Utama", "PersonName": "JOSEPHINE LIOE", "Links": []}, {"Id": 108, "BrokerCode": "AT", "JobPositionId": "11", "JobPositionName": "Komisaris", "PersonName": "BUDI KARTIKA", "Links": []}, {"Id": 109, "BrokerCode": "AT", "JobPositionId": "20", "JobPositionName": "Direktur Utama", "PersonName": "JEFFREY HENDRIK", "Links": []}, {"Id": 110, "BrokerCode": "AT", "JobPositionId": "21", "JobPositionName": "Direktur", "PersonName": "SRIWATI WIDJAJA                                             ", "Links": []}], "ShareHolders": [{"BrokerCode": "AT", "ShareHolderNo": 1, "ShareHolderName": "JOSEPHINE LIOE", "Status": "Perorangan", "NumberOfShare": 99.33, "OwnershipStatus": "Lokal", "Country": "Indonesia", "Links": []}, {"BrokerCode": "AT", "ShareHolderNo": 2, "ShareHolderName": "BUDI KARTIKA", "Status": "Perorangan", "NumberOfShare": 0.67, "OwnershipStatus": "Lokal", "Country": "Indonesia", "Links": []}], "BranchOffice": [{"BrokerCode": "AT", "No": 1, "Address": "Jl. Abdul Rivai No. 3B", "City": "Bandung", "Zip": "40171", "Phone": "022-4231883", "Fax": "022-4231830", "Links": []}, {"BrokerCode": "AT", "No": 2, "Address": "Gedung Uniplaza Lantai 1  Jl.MT. Haryono No.A-1", "City": "Medan", "Zip": "20231", "Phone": "(061) 4530223", "Fax": "(061) 4551712", "Links": []}, {"BrokerCode": "AT", "No": 3, "Address": "Jl. Iskak Cokrohadisuryo No.1", "City": "Solo", "Zip": "57134", "Phone": "0271-642564", "Fax": "0271-642564", "Links": []}, {"BrokerCode": "AT", "No": 4, "Address": "Jl. Laksda Adisucipto No. 177", "City": "Yogyakarta", "Zip": "55281", "Phone": "0274-4469385", "Fax": "0274-4469386", "Links": []}, {"BrokerCode": "AT", "No": 5, "Address": "Ruko Saka Square A-09 Jl. Majapahit 71-73", "City": "Semarang", "Zip": "50167", "Phone": "024-76928573", "Fax": "024-76928571", "Links": []}, {"BrokerCode": "AT", "No": 6, "Address": "Komplek Jayapura Pasifik Permai Blok H No. 19 ", "City": "Jayapura", "Zip": "99112", "Phone": "0967-532427", "Fax": "0967-532427", "Links": []}, {"BrokerCode": "AT", "No": 7, "Address": "Ruko ICON 21 Blok R-05 Jalan Dr. Ir. H. Soekarno Keputih Sukolilo", "City": "Surabaya", "Zip": "60111", "Phone": "031-99005231", "Fax": "031-99005230", "Links": []}, {"BrokerCode": "AT", "No": 8, "Address": "Jalan Tengku Imeum Leung Bata No. 84\nBlang Cut Leung Bata\n", "City": "Banda Aceh", "Zip": "23127", "Phone": "0651-35103", "Fax": "-", "Links": []}, {"BrokerCode": "AT", "No": 9, "Address": "Bursa Efek Indonesia Perwakilan Palangkaraya \nJl. RTA. Milono Km 1,5 Ruko 1", "City": "Palangkaraya", "Zip": "73111", "Phone": "0536-4215135", "Fax": "-", "Links": []}, {"BrokerCode": "AT", "No": 10, "Address": "PT BEI Kantor Perwakilan Riau \nJl. Jend. Sudirman No.73 ", "City": "Pekanbaru", "Zip": " 28141 ", "Phone": "0761-7870982", "Fax": "", "Links": []}, {"BrokerCode": "AT", "No": 11, "Address": "PT BEI Kantor Perwakilan Manado Ruko Mega Style Blok 1C No.9 \nJl. Piere Tendean Boulevard ", "City": "Manado", "Zip": " 95000 ", "Phone": "0431-8820387", "Fax": "", "Links": []}, {"BrokerCode": "AT", "No": 12, "Address": "Ruko Central Perdana \nJl. Perdana Komplek Central Perdana Blok B No.18 Bansir Laut  ", "City": "Pontianak ", "Zip": " 78127 ", "Phone": "0561-8182450", "Fax": "", "Links": []}, {"BrokerCode": "AT", "No": 13, "Address": "PT BEI Kantor Perwakilan Sumatera Selatan \nJl.Angkatan 45 No.1314 \n 0711-744 3778 ", "City": "Palembang ", "Zip": " 30137 ", "Phone": "0711-7443778", "Fax": "", "Links": []}, {"BrokerCode": "AT", "No": 14, "Address": "PT BEI Kantor Perwakilan Bangka Belitung \nRuko Niaga Centre Blok G. Lt.2 \nJl. Jend. Sudirman Pangkalpinang  ", "City": "Pangkalpinang", "Zip": "33684 ", "Phone": "0717-9114756", "Fax": "", "Links": []}], "Links": []}