{"Code": "CC", "Name": "MANDIRI SEKURITAS", "StatusCode": "01", "StatusName": "Aktif", "Address": "Menara Mandiri I, Lantai 24-25, Jl. Jend. Sudirman, Kav. 54-55", "City": "Jakarta", "Zip": "12190", "Phone": "526-3445", "Fax": "526-3521", "Email": "- ", "Website": "www.mandirisek.co.id", "JoinDate": "0001-01-01T00:00:00", "JoinStatus": null, "StatusId": "1", "CompanyStatus": "Lokal", "NPWPNo": "01.565.217.5-054.000", "AktaNo": "No. 01, tgl. 2 Desember 1991", "ModalDasar": 1000000000000.0, "ModalDisetor": 638500000000.0, "OperationalLicense": "Penjamin Emisi Efek, Perantara Pedagang Efek", "Mkbd": 739788944894.0, "Logo": "/StaticData/Brokers/Logo/CC.jpg", "Licenses": [{"BrokerCode": "CC", "LicenseCode": "Lainnya - Lainnya - AB yang Melakukan Kerjasama Dengan PED", "LicenseNo": null, "LicenseDate": "2021-09-27T00:00:00", "LicenseType": "2", "Links": []}, {"BrokerCode": "CC", "LicenseCode": "Marjin", "LicenseNo": null, "LicenseDate": "2004-09-30T00:00:00", "LicenseType": "2", "Links": []}, {"BrokerCode": "CC", "LicenseCode": "PEE", "LicenseNo": "KEP-12/PM/1992", "LicenseDate": "1992-01-23T00:00:00", "LicenseType": "1", "Links": []}, {"BrokerCode": "CC", "LicenseCode": "PPE", "LicenseNo": "KEP-69/PM/1992", "LicenseDate": "1992-01-23T00:00:00", "LicenseType": "1", "Links": []}], "Managements": [{"Id": 214, "BrokerCode": "CC", "JobPositionId": null, "JobPositionName": "Komisaris Utama (Komisaris Independen)", "PersonName": "MIRZA ADITYASWARA", "Links": []}, {"Id": 215, "BrokerCode": "CC", "JobPositionId": "11", "JobPositionName": "Komisaris", "PersonName": "ENDRA GUNAWAN", "Links": []}, {"Id": 216, "BrokerCode": "CC", "JobPositionId": "20", "JobPositionName": "Direktur Utama", "PersonName": "MOHAMAD OKI RAMADHANA", "Links": []}, {"Id": 217, "BrokerCode": "CC", "JobPositionId": "21", "JobPositionName": "Direktur", "PersonName": "HERU HANDAYANTO", "Links": []}, {"Id": 218, "BrokerCode": "CC", "JobPositionId": "21", "JobPositionName": "Direktur", "PersonName": "SILVA HALIM", "Links": []}, {"Id": 219, "BrokerCode": "CC", "JobPositionId": "21", "JobPositionName": "Direktur", "PersonName": "THEODORA V.N. MANIK", "Links": []}, {"Id": 220, "BrokerCode": "CC", "JobPositionId": "21", "JobPositionName": "Direktur", "PersonName": "HAROLD JONATHAN DHARMA TJIPTADJAJA", "Links": []}], "ShareHolders": [{"BrokerCode": "CC", "ShareHolderNo": 1, "ShareHolderName": "PT BANK MANDIRI", "Status": "", "NumberOfShare": 99.99, "OwnershipStatus": "Lokal", "Country": "Indonesia                ", "Links": []}, {"BrokerCode": "CC", "ShareHolderNo": 2, "ShareHolderName": "KOPERASI PEGAWAI BANK MANDIRI", "Status": "", "NumberOfShare": 0.01, "OwnershipStatus": "Lokal", "Country": "Indonesia                ", "Links": []}], "BranchOffice": [{"BrokerCode": "CC", "No": 1, "Address": "Gedung Bumi Mandiri Tower 2 Lantai 6, Jl. Panglima Sudirman No. 66-68", "City": "Surabaya", "Zip": "60621", "Phone": "031-5357218", "Fax": "031-5357219", "Links": []}, {"BrokerCode": "CC", "No": 2, "Address": "Menara Sudirman Lt. 10 D\nJl. Jend. Sudirman Kav. 60", "City": "Jakarta", "Zip": "12190", "Phone": "021-52971581", "Fax": "021-52971582", "Links": []}, {"BrokerCode": "CC", "No": 3, "Address": "Gedung bank Mandiri Wahid Hasyim\nJl. Kyai H. Wahid Hasyim No.5-7, Kauman, Kec. Klojen", "City": "Malang Jawa Timur", "Zip": "65119", "Phone": "0341-336440", "Fax": "0341-336441", "Links": []}, {"BrokerCode": "CC", "No": 4, "Address": "Cabang Bandung_Jl. Surapati No.2", "City": "Bandung", "Zip": "40115", "Phone": "022-4265088", "Fax": "022-4265145", "Links": []}, {"BrokerCode": "CC", "No": 5, "Address": "Cabang Palembang_ Jl. Kapt.A.Rivai No. 27", "City": "Palembang", "Zip": "30129", "Phone": "0711-319900", "Fax": "0711-317879", "Links": []}, {"BrokerCode": "CC", "No": 6, "Address": "Cabang Bandar Lampung_Gedung Bank Mandiri Teluk Betung, Jl.Laksamana Malahayati No.30", "City": "Bandar Lampung - Lampung", "Zip": "34223", "Phone": "0721-475292", "Fax": "-", "Links": []}, {"BrokerCode": "CC", "No": 7, "Address": "Cabang Kepala Gading_Kompleks Rukan Gading Bukit Indah Blok A No.21, Jl. Bukit Gading, Kelapa Gading ", "City": "Jakarta Utara", "Zip": "14240", "Phone": "021-45877522", "Fax": "021-4528026", "Links": []}, {"BrokerCode": "CC", "No": 8, "Address": "Cabang Puri Indah_Kompleks Ruko Sentra Niaga Puri Blok T1/49, Jl. Puri Indah Raya", "City": "Jakarta Barat", "Zip": "11610", "Phone": "021-5816060", "Fax": "021-58300922", "Links": []}, {"BrokerCode": "CC", "No": 9, "Address": "Cabang Mangga Dua_Kompleks Mangga Dua Plaza Blok H No.12A, Jl. Mangga Dua Raya ", "City": "Jakarta Barat ", "Zip": "10730", "Phone": "021-62201485", "Fax": "021-6262258", "Links": []}, {"BrokerCode": "CC", "No": 10, "Address": "Gedung Bank Mandiri Slamet Riyadi lantai 2\nJl. Slamet Riyadi No. 16 Gladak", "City": "Solo - Jawa Tengah", "Zip": "57111", "Phone": "0271-7889290", "Fax": "0271-7889291", "Links": []}, {"BrokerCode": "CC", "No": 11, "Address": "WTC Serpong\nJl. Boulevard Royal Serpong Village No. 0859\nPondok Jagung", "City": "Tangerang Selatan", "Zip": "15326", "Phone": "021-53163280", "Fax": "021-53163281", "Links": []}, {"BrokerCode": "CC", "No": 12, "Address": "Cabang Pontianak_Gedung Bank Mandiri Lantai 2, Jl. I Gusti Ngurah Rai Humaera 2B Lantai 2", "City": "Pontianak - Kalimantan Barat", "Zip": "78117", "Phone": "0561-582293", "Fax": "0561-582283", "Links": []}, {"BrokerCode": "CC", "No": 13, "Address": "Cabang MT. Haryono_MT. Haryono Square Lantai 2/05, Jl. M.T. Haryono Kav. 10", "City": "Jakarta Timur", "Zip": "13330", "Phone": "021-29575240", "Fax": "021-29575240", "Links": []}, {"BrokerCode": "CC", "No": 14, "Address": "Cabang Yogyakarta_Kantor Area Bank Mandiri, Jl. Jenderal Sudirman No.32", "City": "Yogyakarta", "Zip": "55232", "Phone": "0274-560596", "Fax": "0274-552309", "Links": []}, {"BrokerCode": "CC", "No": 15, "Address": "Cabang Pantai Indah Kapuk_Jl. Elang Laut Boulevard B1 No.41, Jl. Pantai Indah Kapuk, Kapuk Selatan", "City": "Jakarta Utara", "Zip": "14470", "Phone": "021-29514595", "Fax": "-", "Links": []}, {"BrokerCode": "CC", "No": 16, "Address": "Cabang Medan_Jl. Perintis Kemerdekaan No. 1B", "City": "Medan - Sumatera Utara", "Zip": "20152", "Phone": "061-80501825", "Fax": "061-80501824", "Links": []}, {"BrokerCode": "CC", "No": 17, "Address": "Cabang Pekanbaru_Outlet Prioritas Pekanbaru, Jl.Jenderal Sudirman No. 357", "City": "Pekanbaru - Riau", "Zip": "28113", "Phone": "-", "Fax": "-", "Links": []}, {"BrokerCode": "CC", "No": 18, "Address": "Gedung Bank Mandiri  (Persero )Tbk  Cabang Lubuk Baja  Jl. Imam Bonjol,  Lubuk Baja Kota ", "City": "Kota Batam - Kepulauan Riau", "Zip": "29342", "Phone": "0778-7483348", "Fax": "-", "Links": []}, {"BrokerCode": "CC", "No": 19, "Address": "Galeri Edukasi Universitas MH. Thamrin (Kampus AKA), Jl. Bangka Raya 2 Kebayoran Baru", "City": "Jakarta Selatan", "Zip": "-", "Phone": "-", "Fax": "-", "Links": []}, {"BrokerCode": "CC", "No": 20, "Address": "Denpasar, Bank Mandiri \nArea Badung Kuta Raya\nJl Raya Kuta No. 456, Badung, Kuta", "City": "Bali", "Zip": "80361", "Phone": "-", "Fax": "-", "Links": []}, {"BrokerCode": "CC", "No": 21, "Address": "Galeri Edukasi Padang_Jl. Niaga No. 165", "City": "Padang - Sumatera Barat", "Zip": "25211", "Phone": "0751-893799", "Fax": "0751-22345", "Links": []}, {"BrokerCode": "CC", "No": 22, "Address": "Jl. A. Yani KM. 7,8 Komp. Citraland, Type Ruko I - WALK, Kawasan - The Downtown IW Kav. No. 25 Desa Manarap, Kec. Kertak \nHanyar, Kab. Banjar. Kalimantan Selatan \n", "City": "Banjarmasin", "Zip": "70654", "Phone": "0511-3261794", "Fax": "0511-3261753", "Links": []}, {"BrokerCode": "CC", "No": 23, "Address": "Galeri Edukasi Balikpapan_Ruko Sentra Eropa AA 2A No. 8, Kompleks Balikpapan Baru, Kelurahan Gunung Bahagia Kecamatan Balikpapan Selatan", "City": "Balikpapan - Kalimantan Timur", "Zip": "76114", "Phone": "0542-8860069", "Fax": "0542-8860068", "Links": []}, {"BrokerCode": "CC", "No": 24, "Address": "Galeri Edukasi Makassar_Jl. Veteran Utara No. 255 B", "City": "Makassar - Sulawesi Selatan", "Zip": "90141", "Phone": "0411-4092952", "Fax": "-", "Links": []}, {"BrokerCode": "CC", "No": 25, "Address": "Galeri Investasi BEI Gresik_Universitas Internasional Semen Indonesia, Kompleks PT Semen Indonesia (Persero) Tbk, Jl. Veteran", "City": "Gresik - Jawa Timur", "Zip": "61122", "Phone": "-", "Fax": "-", "Links": []}, {"BrokerCode": "CC", "No": 26, "Address": "Bank Syariah Indonesia (Ex. Bank Mandiri Area Banda Aceh) Lantai 2, Jl. Teuku H. Daud Beureuh No. 15, Keuramat. Kuta Alam\n", "City": "Banda Aceh", "Zip": "23123", "Phone": "-", "Fax": "-", "Links": []}, {"BrokerCode": "CC", "No": 27, "Address": "Galeri Edukasi Semarang_Bank Mandiri Cabang Semarang Pahlawan, Jl. Pahlawan No. 3 ", "City": "Semarang - Jawa Tengah", "Zip": "50243", "Phone": "-", "Fax": "-", "Links": []}, {"BrokerCode": "CC", "No": 28, "Address": "Jl. Jend. Sudirman No. 463, Purwokerto, Banyumas", "City": "Purwokerto, Jawa Tengah", "Zip": "53141", "Phone": "0281-632222", "Fax": "-", "Links": []}, {"BrokerCode": "CC", "No": 29, "Address": "Geleri Investasi BEI - Indonesia Banking School\nJl. Kemang Raya No. 35 Bangka, Mampang Prapatan", "City": "Jakarta Selatan", "Zip": "12730", "Phone": "-", "Fax": "-", "Links": []}, {"BrokerCode": "CC", "No": 30, "Address": "Mandiri Prioritas Pematang Siantar KC Sudirman, Lantai 2, Jl. Sudirman No. 14", "City": "Pematang Siantar", "Zip": "21117", "Phone": "-", "Fax": "-", "Links": []}, {"BrokerCode": "CC", "No": 31, "Address": "Jl. Genteng Kali No. 93-95, Genteng", "City": "Surabaya, Jawa Timur", "Zip": "60275", "Phone": "-", "Fax": "-", "Links": []}, {"BrokerCode": "CC", "No": 32, "Address": "Fakultas Ekonomi Universitas Pakuan, \nJl Pakuan, Tegallega, Bogor Tengah\n", "City": "Bogor", "Zip": "16143", "Phone": "-", "Fax": "-", "Links": []}, {"BrokerCode": "CC", "No": 33, "Address": "Bank Mandiri Madiun, Jl. Pahlawan No.29  Kota Madiun, \n", "City": "Jawa Timur ", "Zip": "63116", "Phone": "-", "Fax": "-", "Links": []}, {"BrokerCode": "CC", "No": 34, "Address": "Desa Titiwangi\nJalan Soekarno Hatta No.1 Desa Titiwangi - Kecamatan Candipuro \nKab.Lampung Selatan, ", "City": "Lampung ", "Zip": "35356", "Phone": "-", "Fax": "-", "Links": []}, {"BrokerCode": "CC", "No": 35, "Address": "Bank Mandiri Area Balikpapan Klandasan\nJl. Jend. Sudirman No. 71 Lantai 6 Klandasan  Ilir, Balikpapan Kota.\nKota Balikpapan, Kalimantan Timur 76112\n", "City": "Balikpapan", "Zip": "76112", "Phone": "-", "Fax": "-", "Links": []}], "Links": []}