{"Code": "CP", "Name": "VALBURY SEKURITAS INDONESIA", "StatusCode": "01", "StatusName": "Aktif", "Address": "Menara Karya Lantai 9 Jl. H.R. Rasuna Said Blok X-5 Kav. 1-2", "City": "Jakarta", "Zip": "12950", "Phone": "2553-3600", "Fax": "2553-3700", "Email": "- ", "Website": "www.valburysecurities.co.id", "JoinDate": "0001-01-01T00:00:00", "JoinStatus": null, "StatusId": "1", "CompanyStatus": "Lokal", "NPWPNo": "01.984.335.8-054.000", "AktaNo": " No. 52, tgl. 22-2-2000", "ModalDasar": 800000000000.0, "ModalDisetor": 250000000000.0, "OperationalLicense": "Penjamin Emisi Efek, Perantara Pedagang Efek", "Mkbd": 127978947000.11, "Logo": "/StaticData/Brokers/Logo/CP.jpg", "Licenses": [{"BrokerCode": "CP", "LicenseCode": "Kontrak Berjangka dan Opsi", "LicenseNo": null, "LicenseDate": "2016-02-01T00:00:00", "LicenseType": "2", "Links": []}, {"BrokerCode": "CP", "LicenseCode": "Marjin", "LicenseNo": null, "LicenseDate": "2002-05-13T00:00:00", "LicenseType": "2", "Links": []}, {"BrokerCode": "CP", "LicenseCode": "Online AO", "LicenseNo": null, "LicenseDate": "2013-10-24T00:00:00", "LicenseType": "2", "Links": []}, {"BrokerCode": "CP", "LicenseCode": "PEE", "LicenseNo": "KEP-02/BL/2010", "LicenseDate": "2010-08-24T00:00:00", "LicenseType": "1", "Links": []}, {"BrokerCode": "CP", "LicenseCode": "PPE", "LicenseNo": "KEP-03/PM/PPE/2000", "LicenseDate": "2000-07-17T00:00:00", "LicenseType": "1", "Links": []}], "Managements": [{"Id": 242, "BrokerCode": "CP", "JobPositionId": "10", "JobPositionName": "Komisaris Utama", "PersonName": "ANDREW HENDRIKCH HARYONO", "Links": []}, {"Id": 243, "BrokerCode": "CP", "JobPositionId": "79", "JobPositionName": "Komisaris Independen", "PersonName": "JONNY HARIANTO", "Links": []}, {"Id": 244, "BrokerCode": "CP", "JobPositionId": "20", "JobPositionName": "Direktur Utama", "PersonName": "BENNY ANDREWIJAYA", "Links": []}, {"Id": 245, "BrokerCode": "CP", "JobPositionId": "21", "JobPositionName": "Direktur", "PersonName": "HON HERFENDI", "Links": []}, {"Id": 246, "BrokerCode": "CP", "JobPositionId": "21", "JobPositionName": "Direktur", "PersonName": "BENJAMIN S. NOTODIHARDJO", "Links": []}], "ShareHolders": [{"BrokerCode": "CP", "ShareHolderNo": 1, "ShareHolderName": "PT GADING DANALESTARI", "Status": "Badan Hukum", "NumberOfShare": 99.96, "OwnershipStatus": "Lokal", "Country": "Indonesia", "Links": []}, {"BrokerCode": "CP", "ShareHolderNo": 2, "ShareHolderName": "MARLYNE HARYONO", "Status": "Perorangan", "NumberOfShare": 0.04, "OwnershipStatus": "Lokal", "Country": "Indonesia", "Links": []}], "BranchOffice": [{"BrokerCode": "CP", "No": 1, "Address": "Jl. HOS Cokroaminoto No. 82", "City": "Bandung", "Zip": "40171", "Phone": "022-87255800", "Fax": "-", "Links": []}, {"BrokerCode": "CP", "No": 2, "Address": "Pakuwon Center Lantai 21\nJl. Embong Malang No. 1", "City": "Surabaya", "Zip": "60261", "Phone": "031-2955788,2955715", "Fax": "(031) 2955716", "Links": []}, {"BrokerCode": "CP", "No": 3, "Address": "Komplek Jati Junction No. P5- P5A\nJl. Perintis Kemerdekaan", "City": "Medan", "Zip": "20218", "Phone": "061-88816222", "Fax": "-", "Links": []}, {"BrokerCode": "CP", "No": 4, "Address": "Jalan Pahlawan Trip No. 7", "City": "Malang", "Zip": "65112", "Phone": "0341-585888", "Fax": "-", "Links": []}, {"BrokerCode": "CP", "No": 5, "Address": "Komplek Ibis Styles Hotel\n Jl. Teuku Umar No. 177", "City": "Bali", "Zip": "80114", "Phone": "0361-225229", "Fax": "-", "Links": []}, {"BrokerCode": "CP", "No": 6, "Address": "Jl. Kampung Nias II No. 10", "City": "Padang", "Zip": "25211", "Phone": "0751-8955747", "Fax": "", "Links": []}, {"BrokerCode": "CP", "No": 7, "Address": "Candi Plaza Building Lt. Dasar\nJl. Sultan Agung No. 90 - 90A", "City": "Semarang", "Zip": "50252", "Phone": "024-8501122", "Fax": "-", "Links": []}, {"BrokerCode": "CP", "No": 8, "Address": "Jl. Magelang KM 5,5 No.75  ", "City": "Yogyakarta", "Zip": "55000", "Phone": "0274-623111", "Fax": "", "Links": []}, {"BrokerCode": "CP", "No": 9, "Address": "Jl. Gatot Subroto No. 33 RT. 34/RW.02, Kel Kebun Bunga , Kecamatan Banjarmasin Timur   Kalimantan Selatan", "City": "Banjarmasin", "Zip": "70235", "Phone": "(0511) 3265918", "Fax": "", "Links": []}, {"BrokerCode": "CP", "No": 10, "Address": "Jl. Tuanku Tambusai Komplek CNN Blok A No. 3 ", "City": "Pekanbaru", "Zip": "28291", "Phone": "0761- 839393", "Fax": "", "Links": []}, {"BrokerCode": "CP", "No": 11, "Address": "Jl. Pluit Putra Raya No. 2, Jakarta Utara", "City": "Jakarta", "Zip": "14450", "Phone": "021-29264300", "Fax": "", "Links": []}, {"BrokerCode": "CP", "No": 12, "Address": "Jl. Raya Boulevard Barat, Rukan Plaza Pacific Blok A1 No. 10,  Kelapa Gading", "City": "Jakarta", "Zip": "14240", "Phone": "021-29451577", "Fax": "-", "Links": []}, {"BrokerCode": "CP", "No": 13, "Address": "Rukan Grand Aries Niaga Blok E.1 No. 1V\nJl. Taman Aries, Kembangan", "City": "Jakarta", "Zip": "11620", "Phone": "021-22542390", "Fax": "-", "Links": []}, {"BrokerCode": "CP", "No": 14, "Address": "Komp. PTC Mall Blok I No. 7 Jl. R.Sukamto Kel 8 Ilir Kec. Ilir Timur II Palembang 30114", "City": "Palembang", "Zip": "30137", "Phone": "0711-5700281", "Fax": "-", "Links": []}, {"BrokerCode": "CP", "No": 15, "Address": "Gedung Ratulangi Point Lantai 3\nJl. Dr. Sam Ratulangi No. 2", "City": "Makassar", "Zip": "90125", "Phone": "0411-8955999", "Fax": "", "Links": []}, {"BrokerCode": "CP", "No": 16, "Address": "Kawasan Megamas, Ruko Megaprofit Blok 1F2 No. 38", "City": "Manado", "Zip": "95111", "Phone": "0431-7197836", "Fax": "", "Links": []}, {"BrokerCode": "CP", "No": 17, "Address": "Jl. Ronggo Warsito No. 34", "City": "Solo", "Zip": "57118", "Phone": "0271-632888", "Fax": "", "Links": []}, {"BrokerCode": "CP", "No": 18, "Address": "Jl. M.T. Haryono 637", "City": "Semarang", "Zip": "50124", "Phone": "024-8415195", "Fax": "", "Links": []}], "Links": []}