{"Code": "DH", "Name": "SINARMAS SEKURITAS", "StatusCode": "01", "StatusName": "Aktif", "Address": "Plaza BII Tower III, Lantai 5 Ruang 501\nJln.  M.H. Thamrin No. 51", "City": "Jakarta ", "Zip": "10350", "Phone": "(021) 3925 550 ", "Fax": "(021) 3925 540,79", "Email": "- ", "Website": "www.sinarmassekuritas.co.id", "JoinDate": "0001-01-01T00:00:00", "JoinStatus": null, "StatusId": "1", "CompanyStatus": "Lokal", "NPWPNo": "01.331.409.1-021.000", "AktaNo": "No.234, Tanggal, 23 Juni 1988", "ModalDasar": 100000000000.0, "ModalDisetor": 67700000000.0, "OperationalLicense": "Penjamin Emisi Efek, Perantara Pedagang Efek", "Mkbd": 695090897259.09, "Logo": "/StaticData/Brokers/Logo/DH.jpg", "Licenses": [{"BrokerCode": "DH", "LicenseCode": "Marjin", "LicenseNo": null, "LicenseDate": "2004-06-01T00:00:00", "LicenseType": "2", "Links": []}, {"BrokerCode": "DH", "LicenseCode": "Online AO", "LicenseNo": null, "LicenseDate": "2010-08-05T00:00:00", "LicenseType": "2", "Links": []}, {"BrokerCode": "DH", "LicenseCode": "PEE", "LicenseNo": "KEP-82/PM/1992", "LicenseDate": "1992-02-29T00:00:00", "LicenseType": "1", "Links": []}, {"BrokerCode": "DH", "LicenseCode": "PPE", "LicenseNo": "KEP-83/PM/1992", "LicenseDate": "1992-02-29T00:00:00", "LicenseType": "1", "Links": []}], "Managements": [{"Id": 288, "BrokerCode": "DH", "JobPositionId": "11", "JobPositionName": "Komisaris", "PersonName": "INDRA WIDJAJA", "Links": []}, {"Id": 289, "BrokerCode": "DH", "JobPositionId": "20", "JobPositionName": "Direktur Utama", "PersonName": "HERMAWAN HOSEIN", "Links": []}, {"Id": 290, "BrokerCode": "DH", "JobPositionId": "21", "JobPositionName": "Direktur", "PersonName": "FENDY SUTANTO                                               ", "Links": []}, {"Id": 291, "BrokerCode": "DH", "JobPositionId": "21", "JobPositionName": "Direktur", "PersonName": "JEFFROSENBERG CHEN LIM", "Links": []}, {"Id": 292, "BrokerCode": "DH", "JobPositionId": "21", "JobPositionName": "Direktur", "PersonName": "KERRY RUSLI", "Links": []}, {"Id": 293, "BrokerCode": "DH", "JobPositionId": "21", "JobPositionName": "Direktur", "PersonName": "FERITA", "Links": []}], "ShareHolders": [{"BrokerCode": "DH", "ShareHolderNo": 1, "ShareHolderName": "PTSINAR MAS MULTIARTHA                                      ", "Status": "", "NumberOfShare": 99.998, "OwnershipStatus": "Lokal", "Country": "Indonesia                ", "Links": []}, {"BrokerCode": "DH", "ShareHolderNo": 2, "ShareHolderName": "PTASURANSI SINAR MAS                                        ", "Status": "", "NumberOfShare": 0.001, "OwnershipStatus": "Lokal", "Country": "Indonesia                ", "Links": []}], "BranchOffice": [{"BrokerCode": "DH", "No": 1, "Address": "Gedung Bank Sinarmas Lantai 3  Jl. Diponegoro no.64  Surabaya  ", "City": "Surabaya", "Zip": "-", "Phone": "031-5619788", "Fax": "031-5631788", "Links": []}, {"BrokerCode": "DH", "No": 2, "Address": "Wisma Eka Jiwa Lt. 5, \nMangga Dua Raya Blok N", "City": "Jakarta", "Zip": "14430", "Phone": "021-6257970", "Fax": "021-6257971", "Links": []}, {"BrokerCode": "DH", "No": 3, "Address": "Gedung Bank Sinarmas, Jln. Abdul Rivai No.2", "City": "Bandung", "Zip": "-", "Phone": "022-4266945", "Fax": "022-4266691", "Links": []}, {"BrokerCode": "DH", "No": 4, "Address": "Gedung SMS  Jl.Basuki Rachmat No.58  Malang  ", "City": "Malang", "Zip": "-", "Phone": "0293-360999", "Fax": "0341-335999", "Links": []}, {"BrokerCode": "DH", "No": 5, "Address": "Boulevard Barat Blok I,A1 No.30-31  Kelapa gading  Jakarta Utara  ", "City": "Jakarta", "Zip": "-", "Phone": "021-4502357", "Fax": "021-4502269", "Links": []}, {"BrokerCode": "DH", "No": 6, "Address": "Jl. Dr. Wahidin No. 62B ", "City": "Semarang", "Zip": "-", "Phone": "024-8509278", "Fax": "024-8509855", "Links": []}, {"BrokerCode": "DH", "No": 7, "Address": "Gedung Sinarmas  Jl. Gajah Mada No.1A/B  Pontianak  ", "City": "Pontianak", "Zip": "-", "Phone": "0561-585218", "Fax": "0561-585298", "Links": []}, {"BrokerCode": "DH", "No": 8, "Address": "Jl. Kaliurang KM 8.1 Prujakan RT: 04 RW: 33 Desa Sinduharjo Kecamatan Ngaglik, Sleman Yogyakarta", "City": "Yogyakarta", "Zip": "-", "Phone": "0274-581653", "Fax": "0274-519626", "Links": []}, {"BrokerCode": "DH", "No": 9, "Address": "Gedung ASM Jl. Mangkubumi No.18", "City": "Medan", "Zip": "-", "Phone": "061-4564132", "Fax": "061-4563810", "Links": []}, {"BrokerCode": "DH", "No": 10, "Address": "Gedung Bank Sinarmas\nDr. Wahidi No.29  Cirebon   ", "City": "Cirebon", "Zip": "45112", "Phone": "0231-238805", "Fax": "0231-246556", "Links": []}, {"BrokerCode": "DH", "No": 11, "Address": "Gedung Bank Sinarmas lantai 3\nJl. Sam Ratulangi No. 18", "City": "Manado", "Zip": "-", "Phone": "0431-860678", "Fax": "0431-879486", "Links": []}, {"BrokerCode": "DH", "No": 12, "Address": "Jl. Pengayoman No.182  Makasar   ", "City": "Makassar", "Zip": "-", "Phone": "0411-456789", "Fax": "0411-448989", "Links": []}, {"BrokerCode": "DH", "No": 13, "Address": "Jl.Tantular No.8, Renon  Denpasar Bali", "City": "Denpasar", "Zip": "80234", "Phone": "0361-229933", "Fax": "0361-229936", "Links": []}, {"BrokerCode": "DH", "No": 14, "Address": "Jl.Raya Solo Baru, Ruko Super Makmur II. No.10 F&10G", "City": "Solo", "Zip": "-", "Phone": "0271-622259", "Fax": "0271-623469", "Links": []}, {"BrokerCode": "DH", "No": 15, "Address": "Ruko Jalan Gajah Mada No. 43A Kota Tegal", "City": "Tegal", "Zip": "-", "Phone": "0283-320184", "Fax": "0283-324238", "Links": []}, {"BrokerCode": "DH", "No": 16, "Address": "Ruko Alexandrite II No. 23 , Gading Serpong Boulevard, Tangerang Selatan", "City": "Tangerang", "Zip": "15322", "Phone": "021-22229639", "Fax": "021-54212180", "Links": []}, {"BrokerCode": "DH", "No": 17, "Address": "Jl.Hayam Wuruk No.146  Talang Jauh-Jelutu  ", "City": "Jambi", "Zip": "-", "Phone": "0741-7554987", "Fax": "0741-7554974", "Links": []}, {"BrokerCode": "DH", "No": 18, "Address": "Jl. Sutisna Senjaya No.65", "City": "Tasikmalaya", "Zip": "-", "Phone": "0265-311771", "Fax": "0265-335596", "Links": []}, {"BrokerCode": "DH", "No": 19, "Address": "Jl. Ahmad Yani Komplek Ruko Bekasi Mas Blok C 4-5", "City": "Bekasi", "Zip": "-", "Phone": "021-88961718", "Fax": "021-88961708", "Links": []}, {"BrokerCode": "DH", "No": 20, "Address": "Jl. Tentara Pelajar No.3-5  Magelang  ", "City": "Magelang", "Zip": "-", "Phone": "0293-360999", "Fax": "0293-313188", "Links": []}, {"BrokerCode": "DH", "No": 21, "Address": "Gedung Epicentrum Walk Lt.5 Suite B 501\nJl. HR Rasuna Said", "City": "Jakarta", "Zip": "-", "Phone": "021-29941127", "Fax": "021-29941927", "Links": []}, {"BrokerCode": "DH", "No": 22, "Address": "Jl. Letjen. Soepeno, Plaza Panin Lt. 3\nBlok CC-6 No: 1\nPermata Hijau", "City": "Jakarta", "Zip": "-", "Phone": "021-53663651", "Fax": "021-53663652", "Links": []}, {"BrokerCode": "DH", "No": 23, "Address": "RUKO G-WALK SHOP HOUSE W1-30 CITRALAND SURABAYA ", "City": "Surabaya", "Zip": "60216", "Phone": "031-5673766", "Fax": "031-5673166", "Links": []}], "Links": []}