{"Code": "EP", "Name": "MNC SEKURITAS", "StatusCode": "01", "StatusName": "Aktif", "Address": "Gedung MNC Financial Center, 16,  Jl. Kebon Sirih,  21-27", "City": "Jakarta Pusat", "Zip": "10340", "Phone": "021 - 2980 3111", "Fax": "021 - 3983 6868", "Email": "[email\u00a0protected]", "Website": "www.mncsekuritas.id", "JoinDate": "0001-01-01T00:00:00", "JoinStatus": null, "StatusId": "1", "CompanyStatus": "Lokal", "NPWPNo": "02.341.063.2-054.000", "AktaNo": "99", "ModalDasar": 1000000000000.0, "ModalDisetor": 350000000000.0, "OperationalLicense": "Penjamin Emisi Efek", "Mkbd": 252670368072.77, "Logo": "/StaticData/Brokers/Logo/EP.jpg", "Licenses": [{"BrokerCode": "EP", "LicenseCode": "Marjin", "LicenseNo": null, "LicenseDate": "2007-03-27T00:00:00", "LicenseType": "2", "Links": []}, {"BrokerCode": "EP", "LicenseCode": "Online AO", "LicenseNo": null, "LicenseDate": "2010-08-05T00:00:00", "LicenseType": "2", "Links": []}, {"BrokerCode": "EP", "LicenseCode": "PEE", "LicenseNo": "Kep-03/PM/PEE/2004", "LicenseDate": "2004-05-26T00:00:00", "LicenseType": "1", "Links": []}], "Managements": [{"Id": 358, "BrokerCode": "EP", "JobPositionId": "10", "JobPositionName": "Komisaris Utama", "PersonName": "HENRY SUPARMAN                                    ", "Links": []}, {"Id": 359, "BrokerCode": "EP", "JobPositionId": "79", "JobPositionName": "Komisaris Independen", "PersonName": "ALPINO KIANJAYA", "Links": []}, {"Id": 360, "BrokerCode": "EP", "JobPositionId": "11", "JobPositionName": "Komisaris", "PersonName": "AGUSTINUS WISHNU HANDOYONO                                  ", "Links": []}, {"Id": 361, "BrokerCode": "EP", "JobPositionId": "20", "JobPositionName": "Direktur Utama", "PersonName": "SUSY MEILINA", "Links": []}, {"Id": 362, "BrokerCode": "EP", "JobPositionId": "21", "JobPositionName": "Direktur", "PersonName": "FIFI VIRGANTRIA", "Links": []}, {"Id": 363, "BrokerCode": "EP", "JobPositionId": "21", "JobPositionName": "Direktur", "PersonName": "MARLINA", "Links": []}, {"Id": 364, "BrokerCode": "EP", "JobPositionId": "21", "JobPositionName": "Direktur", "PersonName": "WAHYU BUDI SULISTIYO", "Links": []}], "ShareHolders": [{"BrokerCode": "EP", "ShareHolderNo": 1, "ShareHolderName": "PT BHAKTI CAPITAL INDONESIA Tbk.", "Status": "", "NumberOfShare": 99.99, "OwnershipStatus": "Lokal", "Country": "Indonesia                ", "Links": []}, {"BrokerCode": "EP", "ShareHolderNo": 2, "ShareHolderName": "KOPERASI KARYAWAN PT BHAKTI INVESTAMA TBK", "Status": "", "NumberOfShare": 0.01, "OwnershipStatus": "Lokal", "Country": "Indonesia                ", "Links": []}], "BranchOffice": [{"BrokerCode": "EP", "No": 1, "Address": "Komplek Kyai Langgeng\nJl. Cempaka No. 8 Kelurahan Jurang Ombo", "City": "Magelang", "Zip": "56123", "Phone": "(0293) 313 338", "Fax": "-", "Links": []}, {"BrokerCode": "EP", "No": 2, "Address": "Galeri Investasi BEI MATANA\nMatana University Tower\nJl. CBD Barat Kav. 1 Gading Serpong", "City": "Tangerang", "Zip": "-", "Phone": "-", "Fax": "-", "Links": []}, {"BrokerCode": "EP", "No": 3, "Address": "Galeri Investasi BEI AL AZHAR\nUniversitas Al Azhar Indonesia\nJl. Sisingamangaraja, Kebayoran Baru", "City": "Jakarta Selatan", "Zip": "-", "Phone": "-", "Fax": "-", "Links": []}, {"BrokerCode": "EP", "No": 4, "Address": "Galeri Investasi BEI NOMMENSEN\nUniversitas HKBP Nommensen\nl Sutomo No. 4A", "City": "Medan", "Zip": "-", "Phone": "-", "Fax": "-", "Links": []}, {"BrokerCode": "EP", "No": 5, "Address": "Galeri Investasi BEI IAIN\nInstitut Agama Islam Negeri Zawiyah Cot Kala Langsa\nJl. Meurandeh", "City": "Langsa", "Zip": "-", "Phone": "-", "Fax": "-", "Links": []}, {"BrokerCode": "EP", "No": 6, "Address": "Galeri Investasi BEI UPN VETERAN\nUniversitas Pembangunan Nasional Veteran\nJl. RS. Fatmawati Pondok Labu", "City": "Jakarta Selatan", "Zip": "-", "Phone": "-", "Fax": "-", "Links": []}, {"BrokerCode": "EP", "No": 7, "Address": "Galeri Investasi BEI STIM NITRO\nSekolah Tinggi Ilmu Manajemen Nitro\nJl. Prof. Abdulrahman Basalamah No. 101", "City": "Makasar", "Zip": "-", "Phone": "-", "Fax": "-", "Links": []}, {"BrokerCode": "EP", "No": 8, "Address": "Galeri Investasi BEI UNSWAGATI\nUniversitas Swadaya Gunung Jati\nJl. Pemuda No. 32, Sunyaragi", "City": "Cirebon", "Zip": "-", "Phone": "-", "Fax": "-", "Links": []}, {"BrokerCode": "EP", "No": 9, "Address": "Galeri Investasi BEI UNIV. UKIT\nUniversitas Kristen Indonesia Tomohon\nl. Raya Talete II Kuranga", "City": "Tomohon", "Zip": "-", "Phone": "-", "Fax": "-", "Links": []}, {"BrokerCode": "EP", "No": 10, "Address": "Galeri Investasi BEI STIE EBEN HAEZAR\nSekolah Tinggi Ilmu Ekonomi Eben Haezar Manado\nJl. Diponegoro No. 4 Mahakeret Barat, Kec. Wenang", "City": "Manado", "Zip": "-", "Phone": "-", "Fax": "-", "Links": []}, {"BrokerCode": "EP", "No": 11, "Address": "Galeri Investasi BEI IAIN MANADO\nInstitut Agama Islam Negeri Manado\nJl. S.H. Sarundajang Kawasan Riang Road I", "City": "Manado", "Zip": "-", "Phone": "-", "Fax": "-", "Links": []}, {"BrokerCode": "EP", "No": 12, "Address": "Galeri Investasi BEI UNIDHA\nUniversitas Dharma Andalas\nl. Sawahan No. 103 A, Simpang Haru", "City": "Padang", "Zip": "-", "Phone": "-", "Fax": "-", "Links": []}, {"BrokerCode": "EP", "No": 13, "Address": "Galeri Investasi BEI UNISNU\nUniversitas Islam Nahdlatul Ulama\nJl. Taman Siswa, Tahunan", "City": "Jepara", "Zip": "-", "Phone": "-", "Fax": "-", "Links": []}, {"BrokerCode": "EP", "No": 14, "Address": "Galeri Investasi BEI STIMI\nSekolah Tinggi Ilmu Manajemen Indonesia\nJl. M. Yamin RT VII No. 78", "City": "Samarinda", "Zip": "-", "Phone": "-", "Fax": "-", "Links": []}, {"BrokerCode": "EP", "No": 15, "Address": "Galeri Investasi BEI STIE NUSANTARA\nSekolah Tinggi Ilmu Ekonomi Nusantara\nJl. Yos Sudarso I No. 12 RT 42", "City": "Sangatta", "Zip": "-", "Phone": "-", "Fax": "-", "Links": []}, {"BrokerCode": "EP", "No": 16, "Address": "Galeri Investasi BEI UNIV. PANCA BHAKTI\nUniversitas Panca Bhakti\nJl. Komodor Yos Sudarso, Sungai Beliung", "City": "Pontianak", "Zip": "78113", "Phone": "-", "Fax": "-", "Links": []}, {"BrokerCode": "EP", "No": 17, "Address": "Galeri Investasi BEI UNIV. TRUNOJOYO\nGedung Pascasarjana Lt. 2 Universitas Trunojoyo Madura\nJl. Raya Telang, PO BOX. 02 Kamal", "City": "Bangkalan", "Zip": "-", "Phone": "-", "Fax": "-", "Links": []}, {"BrokerCode": "EP", "No": 18, "Address": "Galeri Investasi BEI UNG\nUniversitas Negeri Gorontalo\nJl. Jenderal Sudirman No.6", "City": "Gorontalo", "Zip": "-", "Phone": "-", "Fax": "-", "Links": []}, {"BrokerCode": "EP", "No": 19, "Address": "Galeri Investasi BEI UMM\nUniversitas Muhammadiyah Metro\nJl. Ki Hajar Dewantara No.116", "City": "Metro", "Zip": "-", "Phone": "-", "Fax": "-", "Links": []}, {"BrokerCode": "EP", "No": 20, "Address": "Galeri Investasi BEI UPN VETERAN JATIM\nUniversitas Pembangunan Nasional Veteran\nJl. Raya Rungkut Madya, Gunung Anyar", "City": "Surabaya", "Zip": "-", "Phone": "-", "Fax": "-", "Links": []}, {"BrokerCode": "EP", "No": 21, "Address": "Galeri Investasi BEI UNIV. NUSA CENDANA\nUniversitas Nusa Cendana\nJl. Adisucipto, Penfui", "City": "Kupang", "Zip": "-", "Phone": "-", "Fax": "-", "Links": []}, {"BrokerCode": "EP", "No": 22, "Address": "Galeri Investasi BEI TJUT NYAK DHIEN\nUniversitas Tjut Nyak Dhien\nJl. Gatot Subroto No.28, Medan Sunggal", "City": "Medan", "Zip": "-", "Phone": "-", "Fax": "-", "Links": []}, {"BrokerCode": "EP", "No": 23, "Address": "Galeri Investasi BEI STIE Kesatuan\nSekolah Tinggi Ilmu Ekonomi Kesatuan Bogor\nJl. Ranggagading No. 1", "City": "Bogor", "Zip": "-", "Phone": "-", "Fax": "-", "Links": []}, {"BrokerCode": "EP", "No": 24, "Address": "Galeri Investasi BEI UIN\nUniversitas Islam Negeri Syarif Hidayatullah\nJl. Ir. Haji Juanda No. 95", "City": "Jakarta Selatan", "Zip": "-", "Phone": "-", "Fax": "-", "Links": []}, {"BrokerCode": "EP", "No": 25, "Address": "Jl. Bedugul No.22, Sidakarya", "City": "Denpasar", "Zip": "-", "Phone": "-", "Fax": "-", "Links": []}, {"BrokerCode": "EP", "No": 26, "Address": "Galeri Investasi BEI STIE PELITA BANGSA\nSekolah Tinggi Ilmu Ekonomi Pelita Bangsa\nJl. Inspeksi Kali Malang - Tegal Danas, Cikarang", "City": "Bekasi", "Zip": "-", "Phone": "-", "Fax": "-", "Links": []}, {"BrokerCode": "EP", "No": 27, "Address": "Galeri Investasi BEI UNDIKSHA\nUniversitas Pendidikan Ganesha\nJl. Udayana No. 11, Singaraja", "City": "Buleleng", "Zip": "-", "Phone": "-", "Fax": "-", "Links": []}, {"BrokerCode": "EP", "No": 28, "Address": "Galeri Investasi BEI PNJ\nPoliteknik Negeri Jakarta\nJL. Prof. Dr.G.A. Siwabessy, Kampus Baru UI", "City": "Depok", "Zip": "-", "Phone": "-", "Fax": "-", "Links": []}, {"BrokerCode": "EP", "No": 29, "Address": "Galeri Investasi BEI UNSADA\nUniversitas Darma Persada\nJl. Radin Inten II (Terusan Casablanca) Pondok Kelapa", "City": "Jakarta Timur", "Zip": "13450", "Phone": "-", "Fax": "-", "Links": []}, {"BrokerCode": "EP", "No": 30, "Address": "Galeri Investasi BEI STEIN\nSekolah Tinggi Ilmu Ekonomi Pariawisata Internasional\nJl. Raya Kalimalang No. 2A, Cipinang Melayu", "City": "Jakarta Timur", "Zip": "13620", "Phone": "-", "Fax": "-", "Links": []}, {"BrokerCode": "EP", "No": 31, "Address": "Galeri Investasi BEI STAIN MALIKUSSALEH\nSekolah Tinggi Agama Islam Negeri Malikussaleh\nJl. Cempaka No. 1, Lancang Garam, Muara Dua", "City": "Lhokseumawe", "Zip": "-", "Phone": "-", "Fax": "-", "Links": []}, {"BrokerCode": "EP", "No": 32, "Address": "Galeri Investasi BEI IPB\nFakultas Ekonomi dan Manajemen \nKampus IPB Baranang Siang\nJl. Pajajaran", "City": "Bogor", "Zip": "16151", "Phone": "-", "Fax": "-", "Links": []}, {"BrokerCode": "EP", "No": 33, "Address": "Galeri Investasi BEI UTU\nUniversitas Teuku Umar\n Jl. Alue Penyareng, Ujong Tanoh Darat, Meureubo", "City": "Meulaboh", "Zip": "-", "Phone": "-", "Fax": "-", "Links": []}, {"BrokerCode": "EP", "No": 34, "Address": "Galeri Investasi BEI UNLA\nUniversitas Langlangbuana\nJl. Karapitan No.116, Cikawao, Lengkong", "City": "Bandung", "Zip": "40261", "Phone": "-", "Fax": "-", "Links": []}, {"BrokerCode": "EP", "No": 35, "Address": "Galeri Investasi BEI STIE WIDYA DHARMA\nSekolah Tinggi Ilmu Ekonomi Widya Dharma\nJl. H.O.S. Cokroaminoto No. 445", "City": "Pontianak", "Zip": "-", "Phone": "-", "Fax": "-", "Links": []}, {"BrokerCode": "EP", "No": 36, "Address": "Jl. A. Yani Kilometer (PAL) 1,5 No. 103", "City": "Banjarmasin", "Zip": "-", "Phone": "-", "Fax": "-", "Links": []}, {"BrokerCode": "EP", "No": 37, "Address": "The Suite Tower Pantai Indah Kapuk\nRT2 / RW2, Kamal Muara, Penjaringan", "City": "Jakarta Utara", "Zip": "-", "Phone": "-", "Fax": "-", "Links": []}, {"BrokerCode": "EP", "No": 38, "Address": "Galeri Investasi BEI UNTAG\nUniversitas 17 Agustus 1945 Surabaya\nJl. Semolowaru No. 45, Menur Pumpungan, Sukolilo", "City": "Surabaya", "Zip": "-", "Phone": "-", "Fax": "-", "Links": []}, {"BrokerCode": "EP", "No": 39, "Address": "Galeri Investasi BEI ULM\nFakultas Ekonomi dan Bisnis Universitas Lambung Mangkurat\nJl. Brigjen H. Basri, Banjarmasin Utara", "City": "Banjarmasin", "Zip": "-", "Phone": "-", "Fax": "-", "Links": []}, {"BrokerCode": "EP", "No": 40, "Address": "Galeri Investasi BEI UNIV. BANTARA\nUniversitas Veteran Bangun Nusantara Sukoharjo\nJl. Letjend Sujono Humardani No. 1, Bendosari", "City": "Sukoharjo", "Zip": "-", "Phone": "-", "Fax": "-", "Links": []}, {"BrokerCode": "EP", "No": 41, "Address": "Galeri Investasi BEI UNDHARI\nUniversitas Dharmas Indonesia\nGn. Medan, Koto Baru", "City": "Dharmasraya", "Zip": "-", "Phone": "-", "Fax": "-", "Links": []}, {"BrokerCode": "EP", "No": 42, "Address": "Galeri Investasi BEI UNIV. MAJALENGKA\nUniversitas Majalengka\nJl. K.H. Abdul Halim No. 103 Majalengka", "City": "Majalengka", "Zip": "-", "Phone": "-", "Fax": "-", "Links": []}, {"BrokerCode": "EP", "No": 43, "Address": "Galeri Investasi BEI UHAMKA\nUniversitas Muhammadiyah Prof Dr Hamka\nJl. Tanah Merdeka, Kp. Rambutan, Pasar Rebo ", "City": "Jakarta Selatan", "Zip": "-", "Phone": "-", "Fax": "-", "Links": []}, {"BrokerCode": "EP", "No": 44, "Address": "Galeri Investasi BEI UIN SULTAN MAULANA HASANUDIN\nUIN Sultan Maulana Hasanuddin\nJl.  Jendral Sudirman No. 30, Panancangan", "City": "Serang", "Zip": "-", "Phone": "-", "Fax": "-", "Links": []}, {"BrokerCode": "EP", "No": 45, "Address": "GALERI INVESTASI BEI UPJ\nUniv. Pembangunan Jaya, Bintaro\nJl. Cendrawasih No. 65, Sawah Baru, Ciputat", "City": "Tangerang Selatan", "Zip": "-", "Phone": "-", "Fax": "-", "Links": []}, {"BrokerCode": "EP", "No": 46, "Address": "Galeri Investasi BEI UMPO\nUniv. Muhammadiyah Ponorogo (UMPO)\nJl. Budi Utomo No. 10, Ronowijayan, Siman", "City": "Ponorogo", "Zip": "-", "Phone": "-", "Fax": "-", "Links": []}, {"BrokerCode": "EP", "No": 47, "Address": "Galeri Investasi BEI UPN VETERAN YOGYAKARTA\nUPN Veteran Yogyakarta\nJl. SWK 104, Condongcatur, Depok. Kecamatan Depok", "City": "Sleman", "Zip": "-", "Phone": "-", "Fax": "-", "Links": []}, {"BrokerCode": "EP", "No": 48, "Address": "Galeri Investasi BEI UNHAN\nUniversitas Pertahanan Bogor\nKawasan IPSC, Sentul, Sukahati. Citereup", "City": "Bogor", "Zip": "-", "Phone": "-", "Fax": "-", "Links": []}, {"BrokerCode": "EP", "No": 49, "Address": "Galeri Investasi BEI UNIVERSITAS MUHAMMADIYAH SORONG\nUniv. Muhammadiyah Sorong\nJl. Pendidikan No. 27, Malaingkedi, Sorong Utara", "City": "Sorong", "Zip": "-", "Phone": "-", "Fax": "-", "Links": []}, {"BrokerCode": "EP", "No": 50, "Address": "Rukan Gandaria \nJl. K.H Syafi'I Hadzami 8B Kebayoran Lama Utara", "City": "Jakarta Selatan", "Zip": "-", "Phone": "021-27510609", "Fax": "-", "Links": []}, {"BrokerCode": "EP", "No": 51, "Address": "Plaza 1 Pondok Indah UA23\nJl. Metri Pondok Indah", "City": "Jakarta Selatan", "Zip": "-", "Phone": "-", "Fax": "-", "Links": []}, {"BrokerCode": "EP", "No": 52, "Address": "Gedung Bursa Efek Indonesia\nJl. Taman Ade Irma Suryani Nasution No. 21", "City": "Surabaya", "Zip": "-", "Phone": "031-5462152", "Fax": "-", "Links": []}, {"BrokerCode": "EP", "No": 53, "Address": "Komplek Galaxy\nJl. Imam Bonjol No. 19", "City": "Batam", "Zip": "-", "Phone": "0778-459997", "Fax": "0778-456787", "Links": []}, {"BrokerCode": "EP", "No": 54, "Address": "Jl. Honggowongso 15D", "City": "Solo", "Zip": "-", "Phone": "0271-733398", "Fax": "0271-742008", "Links": []}, {"BrokerCode": "EP", "No": 55, "Address": "Jl. Pahlawan Trip No. 9\n", "City": "Malang", "Zip": "-", "Phone": "0341-567555", "Fax": "-", "Links": []}, {"BrokerCode": "EP", "No": 56, "Address": "Wisma Indovision Lantai Dasar\nJl. Raya Panjang Z/III", "City": "Jakarta Barat", "Zip": "11520", "Phone": "021-5813378", "Fax": "-", "Links": []}, {"BrokerCode": "EP", "No": 57, "Address": "Kantor Perwakilan BEI Kelapa Gading\nJl. Boulevard Barat Raya LA-1 No. 11", "City": "Jakarta Utara", "Zip": "-", "Phone": "021-4516003", "Fax": "-", "Links": []}, {"BrokerCode": "EP", "No": 58, "Address": "Mediterania Gajah Mada Residence\nUnit Ruko TUD 12\nJl. Gajah Mada No. 174", "City": "Jakarta Pusat", "Zip": "11130", "Phone": "021-63875567", "Fax": "-", "Links": []}, {"BrokerCode": "EP", "No": 59, "Address": "Galeri Investasi BEI Tazkia\nJl. Ir. H. Juanda No. 78 Sentul City", "City": "Bogor", "Zip": "16810", "Phone": "-", "Fax": "-", "Links": []}, {"BrokerCode": "EP", "No": 60, "Address": "Gedung MNC Financial Service, Jl. Kapten Maulana Lubis No. 12 \nKelurahan Petisah Tengah, Kecamatan Medan Petisah", "City": "Medan", "Zip": "-", "Phone": "061-80501867", "Fax": "-", "Links": []}, {"BrokerCode": "EP", "No": 61, "Address": "Wisma CIMB Niaga Bandung/9/902 B\nJl.Gatot Subroto No.2, 9th Floor, Suite 902B \n", "City": "Bandung", "Zip": "40262", "Phone": "022-7331916", "Fax": "-", "Links": []}, {"BrokerCode": "EP", "No": 62, "Address": "Jl. HOS Cokroaminoto Gang 2 No.1, \n", "City": "Pati", "Zip": "-", "Phone": "0295-382722", "Fax": "0295-385093", "Links": []}, {"BrokerCode": "EP", "No": 63, "Address": "Galeri Investasi BEI STIKUBANK\nUniversitas Stikubank\nJl. Kendeng V, Bendan Ngisor\n", "City": "Semarang", "Zip": "-", "Phone": "024-8414970", "Fax": "-", "Links": []}, {"BrokerCode": "EP", "No": 64, "Address": "Jl.Brigjend Katamso No 12, Tanjung Karang", "City": "Bandar Lampung", "Zip": "35111", "Phone": "0271-251238", "Fax": "-", "Links": []}, {"BrokerCode": "EP", "No": 65, "Address": "Kawasan Megamas ruko blok 1D no 19 \nJl. Piere Tendean Boulevard\n", "City": "Manado", "Zip": "95111", "Phone": "0431-877888", "Fax": "-", "Links": []}, {"BrokerCode": "EP", "No": 66, "Address": "Jl. Pluit Utara Raya No. 56", "City": "Jakarta Utara", "Zip": "14450", "Phone": "021-29451757", "Fax": "-", "Links": []}, {"BrokerCode": "EP", "No": 67, "Address": "Galeri Investasi BEI UNTAG\nJl. Pawiyatan Luhur Bendan Dhuwur \n", "City": "Semarang", "Zip": "-", "Phone": "024-8316193", "Fax": "-", "Links": []}, {"BrokerCode": "EP", "No": 68, "Address": "Jl. Iswahyudi No. 34 Pasir Putih, Jambi Selatan\n", "City": "Jambi", "Zip": "-", "Phone": "0741-3063187", "Fax": "-", "Links": []}, {"BrokerCode": "EP", "No": 69, "Address": "Galeri Investasi BEI UBM\nUniversitas Bunda Mulia\nJl. Lodan Raya  No.2 \n", "City": "Jakarta Utara", "Zip": "-", "Phone": "021-6929090", "Fax": "-", "Links": []}, {"BrokerCode": "EP", "No": 70, "Address": "Jl. Jenderal Sudirman No. 33B, Balikpapan 76114. Kalimantan Timur.\n", "City": "Balikpapan", "Zip": "-", "Phone": "0542-8519889", "Fax": "-", "Links": []}, {"BrokerCode": "EP", "No": 71, "Address": "Jl. Naripan No. 97 A. Bandung.", "City": "Bandung ", "Zip": "-", "Phone": "022-84281466", "Fax": "-", "Links": []}, {"BrokerCode": "EP", "No": 72, "Address": "Kampus Universitas Global Mandiri KM 4\nJl. Jenderal Sudirman No. 629 \n", "City": "Palembang", "Zip": "-", "Phone": "0711-373198", "Fax": "-", "Links": []}, {"BrokerCode": "EP", "No": 73, "Address": "Jl. Sultan Alaidin Mahmudsyah No. 7 ", "City": "Banda Aceh ", "Zip": "-", "Phone": "0651-8013057", "Fax": "-", "Links": []}, {"BrokerCode": "EP", "No": 74, "Address": "Politeknik Banjarmasin\nGaleri Investasi BEI Poliban\nJl. Brigjen H. Hasan Basri, Komplek Kampus UNLAM, Kayutangi\n\n", "City": "Banjarmasin", "Zip": "-", "Phone": "-", "Fax": "-", "Links": []}, {"BrokerCode": "EP", "No": 75, "Address": "Kantor Perwakilan PIPM\nJl. Pondok No. 90 A", "City": "Padang ", "Zip": "-", "Phone": "0751-811330", "Fax": "-", "Links": []}, {"BrokerCode": "EP", "No": 76, "Address": "Menara Palma One\nLantai 5 Suite 509\nJl. H.R. Rasuna Said Kav. X.2 Nomor 4, ", "City": "Jakarta Selatan", "Zip": "-", "Phone": "021-2526111", "Fax": "-", "Links": []}, {"BrokerCode": "EP", "No": 77, "Address": "PPM Manajemen Gedung B Lt. 8\nJl. Menteng Raya No 9-19\n \n", "City": "Jakarta ", "Zip": "10340", "Phone": "021-2300313", "Fax": "-", "Links": []}, {"BrokerCode": "EP", "No": 78, "Address": "Ruko Metro Plaza Blok D-10 Lantai 3\nJl. MT. Haryono No. 970 \n", "City": "Semarang", "Zip": "-", "Phone": "024-76440151", "Fax": "-", "Links": []}, {"BrokerCode": "EP", "No": 79, "Address": "Jl. Mangkubumi No. 111 \n", "City": "Yogyakarta", "Zip": "-", "Phone": "0274-2923537", "Fax": "-", "Links": []}, {"BrokerCode": "EP", "No": 80, "Address": "Gedung MNC Financial Services\nJl. Arifin Ahmad No. 10 Blok H-K\n", "City": "Pekanbaru", "Zip": "-", "Phone": "0761-8010500", "Fax": "-", "Links": []}, {"BrokerCode": "EP", "No": 81, "Address": "Ruko Central Perdana No. A2-A3\nJl. Perdana\n", "City": "Pontianak", "Zip": "-", "Phone": "0561-734112", "Fax": "-", "Links": []}, {"BrokerCode": "EP", "No": 82, "Address": "Jl. Dr. Sam Ratulangi No. 124 \n", "City": "Makasar", "Zip": "-", "Phone": "0411-8910126", "Fax": "-", "Links": []}, {"BrokerCode": "EP", "No": 83, "Address": "Galeri Investasi BEI UNILA\nFakultas Ekonomi dan Bisnis Universitas Lampung\nJl. Sumantri Brojonegoro No. 01 \n\n", "City": "Bandar Lampung", "Zip": "-", "Phone": "-", "Fax": "-", "Links": []}, {"BrokerCode": "EP", "No": 84, "Address": "Galeri Investasi BEI STIE Indonesia\nSekolah Tinggi Ilmu Ekonomi (STIE) Indonesia\nJl. Kayu Jati Raya No.11A Rawamangun, Pulo Gadung\n", "City": "Jakarta Timur", "Zip": "-", "Phone": "-", "Fax": "-", "Links": []}, {"BrokerCode": "EP", "No": 85, "Address": "Galeri Investasi BEI IAIN\nInstitut Agama Islam Negeri Salatiga\nJl. Tentara Pelajar No. 2, Mangunsari, Sidomukti\n", "City": "Salatiga", "Zip": "50721", "Phone": "-", "Fax": "-", "Links": []}, {"BrokerCode": "EP", "No": 86, "Address": "Galeri Investasi BEI IKOPIN\nInstitut Manajemen Koperasi Indonesia\nKawasan Pendidikan Tinggi Jatinangor\nJl. Jatinangor KM. 20\n", "City": "Sumedang", "Zip": "45363", "Phone": "-", "Fax": "-", "Links": []}, {"BrokerCode": "EP", "No": 87, "Address": "Galeri Investasi BEI UNISAN\nUniversitas Ichsan Gorontalo\nJl. Raden Saleh No. 17\n", "City": "Gorontalo", "Zip": "-", "Phone": "-", "Fax": "-", "Links": []}, {"BrokerCode": "EP", "No": 88, "Address": "Jl. Jend. Sudirman No. 219B, Pintu Batu.  ", "City": "Bengkulu", "Zip": "38115", "Phone": "0736-7313756", "Fax": "-", "Links": []}, {"BrokerCode": "EP", "No": 89, "Address": "Galeri Investasi BEI UTM\nUniversitas Trunojoyo Madura - Fakultas Keislaman (FK) \nJl. Raya Telang, Kamal\n", "City": "Bangkalan", "Zip": "69162", "Phone": "-", "Fax": "-", "Links": []}, {"BrokerCode": "EP", "No": 90, "Address": "Galeri Investasi BEI Univ. Madura\nUniversitas Madura - Fakultas Ekonomi Prodi Manajemen \nJl. Raya Panglegur, KM 3,5. Bugih,", "City": "Pamekasan", "Zip": "69317", "Phone": "-", "Fax": "-", "Links": []}, {"BrokerCode": "EP", "No": 91, "Address": "Galeri Investasi BEI IAIN Pontianak\nInstitut Agama Islam Negeri Pontianak\nJl. Letjen. Soeprapto No.19\n", "City": "Pontianak", "Zip": "78121", "Phone": "-", "Fax": "-", "Links": []}, {"BrokerCode": "EP", "No": 92, "Address": "Galeri Investasi BEI Telkom University  \nTelkom Universty \nJl. Telekomunikasi No.01, Terusan Buah Batu, Sukapura, Dayeuhkolot", "City": "Bandung", "Zip": "40257", "Phone": "-", "Fax": "-", "Links": []}, {"BrokerCode": "EP", "No": 93, "Address": "Galeri Investasi BEI IAIN Syekh Nurjati  \nIAIN Syekh Nurjati  \nJl. Perjuangan By Pass Sunyaragi", "City": "Cirebon", "Zip": "45132", "Phone": "-", "Fax": "-", "Links": []}, {"BrokerCode": "EP", "No": 94, "Address": "Galeri Investasi BEI STIE Bina Karya \nJalan Diponegoro (Simpang Rambung), Kampus III STIE Bina Karya\n ", "City": "Tebing Tinggi", "Zip": "-", "Phone": "-", "Fax": "-", "Links": []}, {"BrokerCode": "EP", "No": 95, "Address": "Galeri Investasi BEI STIE Sakti Alam Kerinci \nSekolah Tinggi Ilmu Ekonomi Sakti Alam Kerinci Kampus 1\n Jalan Jenderal Sudirman No. 89\n ", "City": "Sungai Penuh", "Zip": "-", "Phone": "-", "Fax": "-", "Links": []}, {"BrokerCode": "EP", "No": 96, "Address": "Galeri Investasi BEI Universitas Muhammdiyah Kendari (UMK) \nKampus A UMK, Jalan KHA. Dahlan, Nomor 10", "City": "Kendari ", "Zip": "-", "Phone": "-", "Fax": "-", "Links": []}, {"BrokerCode": "EP", "No": 97, "Address": "Galeri Investasi BEI Sekolah Tinggi Ilmu Administrasi (STIA) \nPembataan Murung Pudak", "City": "Tabalong", "Zip": "-", "Phone": "-", "Fax": "-", "Links": []}, {"BrokerCode": "EP", "No": 98, "Address": "Galeri Investasi BEI STIEM\nSekolah Tinggi Ilmu Ekonomi Makassar\nJalan Let.Jend. Mappaoddang Nomor 28, Bongaya, Tamalat\n", "City": "Makassar", "Zip": "90131", "Phone": "-", "Fax": "-", "Links": []}, {"BrokerCode": "EP", "No": 99, "Address": "Galeri Investasi BEI UMB\nUniversitas Mercu Buana \nJalan Meruya Selatan, Kebon Jeruk", "City": "Jakarta Barat", "Zip": "-", "Phone": "-", "Fax": "-", "Links": []}, {"BrokerCode": "EP", "No": 100, "Address": "Galeri Investasi BEI UNKRIS\nUniversitas Krisnadwipayana\nJalan Raya jatiwaringin, RT.03/RW.04. Jatiwaringin, Pondok Gede\n\n", "City": "Bekasi", "Zip": "-", "Phone": "-", "Fax": "-", "Links": []}, {"BrokerCode": "EP", "No": 101, "Address": "Galeri Investasi BEI UMC\nUniversitas Muhammadiyah Cirebon \nJalan Tuparev, No. 70\n", "City": "Cirebon", "Zip": "-", "Phone": "-", "Fax": "-", "Links": []}, {"BrokerCode": "EP", "No": 102, "Address": "Galeri Investasi BEI UMP\nUniversitas Muhammadiyah Pontianak \nJalan Ahmad Yani No. 111\n", "City": "Pontianak ", "Zip": "-", "Phone": "-", "Fax": "-", "Links": []}, {"BrokerCode": "EP", "No": 103, "Address": "Galeri Investasi BEI Sekolah Tinggi Ilmu Ekonomi Perbanas\nJalan Nginden Semolo 34-36", "City": "Surabaya", "Zip": "60118", "Phone": "-", "Fax": "-", "Links": []}, {"BrokerCode": "EP", "No": 104, "Address": "Galeri Investasi BEI UNHAR\nUniversitas Harapan\nJalan H.M. Joni No. 70 C ", "City": "Medan ", "Zip": "-", "Phone": "-", "Fax": "-", "Links": []}, {"BrokerCode": "EP", "No": 105, "Address": "Galeri Investasi BEI STEBI Global Mulia\nJalan Kp. Cibeureum No.59, Mekarmukti ", "City": "Cikarang Utara", "Zip": "-", "Phone": "-", "Fax": "-", "Links": []}, {"BrokerCode": "EP", "No": 106, "Address": "Galeri Investasi BEI IAIN Metro \nJalan Ki Hajar Dewantara No. 15A, Iringmulyo, Metro Tim\n", "City": "Metro, Lampung ", "Zip": "34112", "Phone": "-", "Fax": "-", "Links": []}, {"BrokerCode": "EP", "No": 107, "Address": "Galeri Investasi BEI DPPK Ukhuwah UMI\nMenara UMI, Jl. Urip Sumoharjo KM.05 Lt.07", "City": "Makassar", "Zip": "-", "Phone": "-", "Fax": "-", "Links": []}, {"BrokerCode": "EP", "No": 108, "Address": "Galeri Investasi BEI Universitas Putera Batam\nKampus A, Jalan R. Soeprapto, Muka Kuning", "City": "Batam ", "Zip": " 29439", "Phone": "-", "Fax": "-", "Links": []}, {"BrokerCode": "EP", "No": 109, "Address": "Galeri Investasi BEI UNIRA\nUniversitas Islam Raden Rahmat \nJalan Raya Mojosari No. 2, Kepanjen", "City": "Malang", "Zip": "-", "Phone": "-", "Fax": "-", "Links": []}], "Links": []}