{"Code": "KK", "Name": "PHILLIP SEKURITAS INDONESIA", "StatusCode": "01", "StatusName": "Aktif", "Address": "[email\u00a0protected] , 23B,  Jl. Jend. Sudirman Kav. 33A , -", "City": "Jakarta", "Zip": "10220", "Phone": "5790-0800", "Fax": "5790-0809", "Email": "- ", "Website": "www.phillip.co.id", "JoinDate": "0001-01-01T00:00:00", "JoinStatus": null, "StatusId": "1", "CompanyStatus": "Patungan", "NPWPNo": "01.347.432.5-054.000", "AktaNo": "No. 128, tgl. 6 Oktober 1989", "ModalDasar": 220000000000.0, "ModalDisetor": 75000000000.0, "OperationalLicense": "Penjamin Emisi Efek, Perantara Pedagang Efek", "Mkbd": 299981715255.64, "Logo": "/StaticData/Brokers/Logo/KK.jpg", "Licenses": [{"BrokerCode": "KK", "LicenseCode": "Marjin", "LicenseNo": null, "LicenseDate": "2000-01-17T00:00:00", "LicenseType": "2", "Links": []}, {"BrokerCode": "KK", "LicenseCode": "PEE", "LicenseNo": "Kep-02/BL/PEE/2007", "LicenseDate": "2007-08-31T00:00:00", "LicenseType": "1", "Links": []}, {"BrokerCode": "KK", "LicenseCode": "PPE", "LicenseNo": "KEP-225/PM/1992", "LicenseDate": "1992-04-16T00:00:00", "LicenseType": "1", "Links": []}], "Managements": [{"Id": 588, "BrokerCode": "KK", "JobPositionId": "10", "JobPositionName": "Komisaris Utama", "PersonName": "GWA SER WAH", "Links": []}, {"Id": 589, "BrokerCode": "KK", "JobPositionId": "11", "JobPositionName": "Komisaris", "PersonName": "WAYAN DANIEL P. DJENDRIA", "Links": []}, {"Id": 590, "BrokerCode": "KK", "JobPositionId": "20", "JobPositionName": "Direktur Utama", "PersonName": "DANIEL TEDJA                                                ", "Links": []}, {"Id": 591, "BrokerCode": "KK", "JobPositionId": "21", "JobPositionName": "Direktur", "PersonName": "THESSALONICA WINARTO", "Links": []}, {"Id": 592, "BrokerCode": "KK", "JobPositionId": "21", "JobPositionName": "Direktur", "PersonName": "ELVY TRISNAWATI", "Links": []}, {"Id": 593, "BrokerCode": "KK", "JobPositionId": "21", "JobPositionName": "Direktur", "PersonName": "IDAH", "Links": []}], "ShareHolders": [{"BrokerCode": "KK", "ShareHolderNo": 1, "ShareHolderName": "PHILLIP BROKERAGE PTE LTD                                    ", "Status": "Badan Hukum", "NumberOfShare": 95.0, "OwnershipStatus": "Asing", "Country": "Singapore                ", "Links": []}, {"BrokerCode": "KK", "ShareHolderNo": 2, "ShareHolderName": "DANIEL TEDJA                                                ", "Status": "Perorangan", "NumberOfShare": 5.0, "OwnershipStatus": "Lokal", "Country": "Indonesia", "Links": []}], "BranchOffice": [{"BrokerCode": "KK", "No": 1, "Address": "Jl. Pangeran Diponegoro 36A\nBandar Lampung", "City": "Lampung", "Zip": "35214", "Phone": "(0721) 474-234", "Fax": "(0721) 474108", "Links": []}, {"BrokerCode": "KK", "No": 2, "Address": "Jl. GR. Djamin Datuk Bagindo No. 56 A", "City": "Jambi", "Zip": "36142", "Phone": "(0741) 755-55699", "Fax": "-", "Links": []}, {"BrokerCode": "KK", "No": 3, "Address": "Ruko Mega Grosir Cempaka Mas Blok D/7\nJl. Letjen Soeprapto, Cempaka Putih", "City": "Jakarta", "Zip": "10640", "Phone": "021-42885051", "Fax": "021-42885050", "Links": []}, {"BrokerCode": "KK", "No": 4, "Address": "Jl. Perintis Kemerdekaan 38  ", "City": "Purwokerto", "Zip": "53110", "Phone": "Telp : 0281 626899", "Fax": "-", "Links": []}, {"BrokerCode": "KK", "No": 5, "Address": "Metro Park Residence, Tower Milan LG 16\nJl. Pilar Mas Raya Kav. 28\nPuri", "City": "Jakarta", "Zip": "11520", "Phone": "021-22581073", "Fax": "-", "Links": []}, {"BrokerCode": "KK", "No": 6, "Address": "Jl. Pantai Indah Barat\nRukan Eksklusif BGM Blok B-6\nPantai Indah Kapuk", "City": "Jakarta", "Zip": "14470", "Phone": "021-56945791", "Fax": "021-56945790", "Links": []}, {"BrokerCode": "KK", "No": 7, "Address": "Jl. Boulevard Raya blok WD 2/10\nKelapa Gading", "City": "Jakarta", "Zip": "14240", "Phone": "021-45879264", "Fax": "-", "Links": []}, {"BrokerCode": "KK", "No": 8, "Address": "Ruko Bahan Bangunan Mangga Dua Blok F1/8,  Jl. Mangga Dua Dalam", "City": "Jakarta", "Zip": "10730", "Phone": "021-62203589", "Fax": "021-62203602", "Links": []}, {"BrokerCode": "KK", "No": 9, "Address": "Pusat Niaga Roxy Mas Blok B2/2\nJl. KH Hasyim Ashari", "City": "Jakarta", "Zip": "10150", "Phone": "021-63868308", "Fax": "021-6333420", "Links": []}, {"BrokerCode": "KK", "No": 10, "Address": "Jl. Karang Wulan Timur 2-4  ", "City": "Semarang", "Zip": "50242", "Phone": "024-3555959", "Fax": "024-3513194", "Links": []}, {"BrokerCode": "KK", "No": 11, "Address": "Ruko Paskal Hypersquare. Jl. Pasirkaliki no. 25-27. Blok D No.40.", "City": "Bandung", "Zip": "40000", "Phone": "022-86060765", "Fax": "022-86061120", "Links": []}, {"BrokerCode": "KK", "No": 12, "Address": "Pontianak / KPBEI\nKomplek Central Perdana Blok A2-3\nJl. Perdana", "City": "Pontianak", "Zip": "78124", "Phone": "0561-8102257", "Fax": "021-30036748", "Links": []}, {"BrokerCode": "KK", "No": 13, "Address": "PMTA (Pusat Mode Tanah Abang) Zona 3 Lt. 5 no. 001,\nJl. KH. Wahid Hasyim, Tanah Abang", "City": "Jakarta", "Zip": "10250", "Phone": "021-50101638", "Fax": "-", "Links": []}, {"BrokerCode": "KK", "No": 14, "Address": "Yogyakarta-KPBEI\nBursa Efek Indonesia Kantor Perwakilan Yogyakarta\nJl. AM Sangaji Nomor 84\n", "City": "Yogyakarta", "Zip": "55233", "Phone": "0274-557367", "Fax": "-", "Links": []}, {"BrokerCode": "KK", "No": 15, "Address": "Alam Sutera\nRuko Prominence Blok 38-E No. 42-43\nJl. Sutra Barat Boulevard", "City": "Tangerang", "Zip": "15143", "Phone": "021-30052589", "Fax": "-", "Links": []}, {"BrokerCode": "KK", "No": 16, "Address": "Manado - KPBEI\nRuko Mega Bright Blok 1E No. 3\nKomplek Mega Mas\nJl. Piere Tendean, Boulevard Manado", "City": "Manado", "Zip": "95000", "Phone": "0431-8820390", "Fax": "", "Links": []}, {"BrokerCode": "KK", "No": 17, "Address": "Banjarmasin\nJl. A. Yani Km. 5,5 No. 2A\n", "City": "Banjarmasin", "Zip": "70249", "Phone": "0511-6744204", "Fax": "", "Links": []}, {"BrokerCode": "KK", "No": 18, "Address": "Jl. Philip Latumahina, No. 16, Ruko C", "City": "Ambon", "Zip": "97115", "Phone": "0911-3823838", "Fax": "", "Links": []}, {"BrokerCode": "KK", "No": 19, "Address": "Jl. Multatuli Blok CC No.5 & 6", "City": "Medan", "Zip": "20151", "Phone": "061-4574033", "Fax": "061-4574055", "Links": []}, {"BrokerCode": "KK", "No": 20, "Address": "Jl. Darmo Kali No. 76", "City": "Surabaya", "Zip": "60241", "Phone": "031-5660027", "Fax": "", "Links": []}, {"BrokerCode": "KK", "No": 21, "Address": "Kompleks Mahkota Raya Blok A No.10\nBatam Centre", "City": "Batam", "Zip": "29456", "Phone": "0778-7473337", "Fax": "0778-7483117", "Links": []}, {"BrokerCode": "KK", "No": 22, "Address": "Citra Garden 2,\nJl. Utan Jati, Komplek Citra Niaga Blok\nA/12,\nCitra Garden 2, Kalideres", "City": "Jakarta", "Zip": "11830", "Phone": "021-54374635", "Fax": "", "Links": []}, {"BrokerCode": "KK", "No": 23, "Address": "Komp. Nirmala Square, Blok C No. 7\nJl. Yos Sudarso", "City": "Tegal", "Zip": "52121", "Phone": "0283-4531975", "Fax": "", "Links": []}, {"BrokerCode": "KK", "No": 24, "Address": "Taman Palem\nBlok B. 2 No. 12, Citypark Business\nDistrict (CBD)\nCengkareng - Jakarta Barat", "City": "Jakarta", "Zip": "11730", "Phone": "021-22522147", "Fax": "021-22522148", "Links": []}, {"BrokerCode": "KK", "No": 25, "Address": "Denpasar - KPBEI\nBursa Efek Indonesia Kantor Perwakilan Bali\nJl. Cok. Agung Tresna No. 168\n", "City": "Denpasar, Bali", "Zip": " 80232", "Phone": "0361-4458172", "Fax": "", "Links": []}, {"BrokerCode": "KK", "No": 26, "Address": "Palembang - KPBEI\nBursa Efek Indonesia Kantor Perwakilan Sumatera Selatan, Jalan Jenderal Sudirman No. 36 B, RT. 021, RW. 007, Kelurahan Sekip Jaya, Kecamatan Kemuning, Kota Palembang\n\n", "City": "Palembang", "Zip": "30137", "Phone": "0711-56409260", "Fax": "", "Links": []}, {"BrokerCode": "KK", "No": 27, "Address": "Jayapura - KPBEI\nKomplek Perkantoran Ardipura, Jl.\nArdipura Polimak No. 3, Jayapura", "City": "Jayapura", "Zip": "99112", "Phone": "0967-532414", "Fax": "0967-532430", "Links": []}, {"BrokerCode": "KK", "No": 28, "Address": "Branch Office - Mataram KPBEI\nBursa Efek Indonesia Kantor Perwakilan Nusa Tenggara Barat\nJl. Pejanggik No. 47 C\n", "City": "Mataram", "Zip": "83122", "Phone": "0370-7504852", "Fax": "", "Links": []}, {"BrokerCode": "KK", "No": 29, "Address": "Branch Office - Palu KPBEI\nKantor Perwakilan (KP) BEI Sulawesi Tengah\nJl. Jend. Sudirman, No. 1 Petak 5 \nKomplek Transmart Mall\n", "City": "Palu", "Zip": "94111", "Phone": "0451-5660027", "Fax": "", "Links": []}, {"BrokerCode": "KK", "No": 30, "Address": "Branch Office - Solo / KPBEI\nBursa Efek Indonesia Kantor Perwakilan Jawa Tengan II\nGedung Graha Prioritas Lantai 1\nJl. Slamet Riyadi No. 302-304\n", "City": "Solo-Surakarta", "Zip": "57141", "Phone": "0271-7451420", "Fax": "", "Links": []}, {"BrokerCode": "KK", "No": 31, "Address": "GI -  Politeknik Negeri Batam\nJl. Ahmad Yani Batam Kota\nKepulauan Riau\n", "City": "Batam", "Zip": "29461", "Phone": "-", "Fax": "", "Links": []}, {"BrokerCode": "KK", "No": 32, "Address": "GI -  STIE IBEK\nJl. Usman Ambon No. 4\n \n", "City": "Bangka Belitung", "Zip": "33125", "Phone": "-", "Fax": "", "Links": []}, {"BrokerCode": "KK", "No": 33, "Address": "GI -  STMIK LIKMI\nJl. Ir. H. Juanda 96, \n\n", "City": "Bandung", "Zip": "40132", "Phone": "-", "Fax": "", "Links": []}, {"BrokerCode": "KK", "No": 34, "Address": "GI -  Universitas Sam Ratulangi\nJl. Kampus Unsrat Manado, \n", "City": "Manado ", "Zip": "95115", "Phone": "-", "Fax": "", "Links": []}, {"BrokerCode": "KK", "No": 35, "Address": "GI -  Politeknik Negeri Bandung\nJl. Gegerkalong Hilir, Desa Ciwaruga\nJawa Barat \n", "City": "Bandung", "Zip": "40559", "Phone": "-", "Fax": "", "Links": []}, {"BrokerCode": "KK", "No": 36, "Address": "GI -  Universitas Diponegoro\nJl. Prof. Soedarto, SH, Tembalang\n\n", "City": "Semarang", "Zip": "50275", "Phone": "-", "Fax": "", "Links": []}, {"BrokerCode": "KK", "No": 37, "Address": "GI -  Universitas Musamus\nJl. Kamizaun Mopah Lama, Rimba Jaya\n\n", "City": "Papua ", "Zip": "99611", "Phone": "-", "Fax": "", "Links": []}, {"BrokerCode": "KK", "No": 38, "Address": "GI -  Universitas Pendidikan Nasional\nJl. Bedugul No.39, Sidakarya, Denpasar Sel.,\nBali \n", "City": "Denpasar", "Zip": "80224", "Phone": "-", "Fax": "", "Links": []}, {"BrokerCode": "KK", "No": 39, "Address": "GI -  Universitas Jambi\nJl. Raya Jambi-Muara Bulian KM 15\nMendalo Darat,  \n", "City": "Jambi ", "Zip": "36361", "Phone": "-", "Fax": "", "Links": []}, {"BrokerCode": "KK", "No": 40, "Address": "GI -  STIE Panca Setia\nJl. Ahmad Yani Km. 5,5, \nKalimantan Selatan, \n", "City": "Banjarmasin", "Zip": "70248", "Phone": "-", "Fax": "", "Links": []}, {"BrokerCode": "KK", "No": 41, "Address": "GI -  Universitas Udayana\nJl. Raya Kampus UNUD, Kampus Bukit Jimbaran,\nKabupaten Badung, Bali \n", "City": "Denpasar", "Zip": "80361", "Phone": "-", "Fax": "", "Links": []}, {"BrokerCode": "KK", "No": 42, "Address": "GI -  Universitas Batang Hari\nJl. Slamet Riyadi No. 01\n \n", "City": "Jambi", "Zip": "36122", "Phone": "-", "Fax": "", "Links": []}, {"BrokerCode": "KK", "No": 43, "Address": "GI -  Universitas Katolik Musi Charitas\nJl. Bangau No. 60,\n \n", "City": "Palembang", "Zip": "30113", "Phone": "-", "Fax": "", "Links": []}, {"BrokerCode": "KK", "No": 44, "Address": "GI -  Universitas Papua\nJl. Gunung Salju Amban Manokwari\n\n", "City": "Papua Barat", "Zip": "98314", "Phone": "-", "Fax": "", "Links": []}, {"BrokerCode": "KK", "No": 45, "Address": "GI -  STIE Ekuitas\nJl. P.H Hasan Mustopa No. 31\n\n", "City": "Bandung", "Zip": "40124", "Phone": "-", "Fax": "", "Links": []}, {"BrokerCode": "KK", "No": 46, "Address": "GI -  Universitas Mataram\nJl. Majapahit No.62, Gomong, Selaparang\nNusa Tenggara Barat. \n", "City": "Kota Mataram", "Zip": "83115", "Phone": "-", "Fax": "", "Links": []}, {"BrokerCode": "KK", "No": 47, "Address": "GI -  Universitas Nusa Nipa\nJl. Kesehatan No.3, Beru, Alok Tim\nKabupaten Sikka, Nusa Tenggara Timur\n", "City": "Beru", "Zip": "-", "Phone": "-", "Fax": "", "Links": []}, {"BrokerCode": "KK", "No": 48, "Address": "GI -  Universitas Muhammadiyah Palembang\nJalan Jenderal Ahmad Yani 13 Ulu Seberang Ulu II\nKec. Plaju, Sumatera Selatan \n", "City": "Palembang", "Zip": "30116", "Phone": "-", "Fax": "", "Links": []}, {"BrokerCode": "KK", "No": 49, "Address": "GI -  Universitas Pattimura\nJalan Jendral Ahmad Yani No.9\nMaluku\n", "City": "Ambon", "Zip": "-", "Phone": "-", "Fax": "", "Links": []}, {"BrokerCode": "KK", "No": 50, "Address": "GI -  Universitas Multimedia Nusantara\nJl. Scientia Boulevard, Gading, Serpong, Banten \n", "City": "Tangerang", "Zip": "15227", "Phone": "-", "Fax": "", "Links": []}, {"BrokerCode": "KK", "No": 51, "Address": "GI -  Universitas Prasetiya Mulya\nKavling Edutown I.1 Jl. BSD Raya Utama\nBSD City \n", "City": "Tangerang", "Zip": "-", "Phone": "-", "Fax": "", "Links": []}, {"BrokerCode": "KK", "No": 52, "Address": "GI -  Universitas Kristen Indonesia Maluku\nJln Ot Pattimaipauw, Talake Kecamatan, Nusaniwe, Kel Wainitu\nMaluku\n", "City": "Ambon", "Zip": "-", "Phone": "-", "Fax": "", "Links": []}, {"BrokerCode": "KK", "No": 53, "Address": "GI -  IAIN Ambon\nJl. Dr. H. Tarmizi Taher,\nMaluku\n", "City": "Ambon", "Zip": "-", "Phone": "-", "Fax": "", "Links": []}, {"BrokerCode": "KK", "No": 54, "Address": "GI -  Universitas Islam Sultan Agung\nJl. Kaligawe Raya, Terboyo Kulon, Genuk\nJawa Tengah \n", "City": "Semarang", "Zip": "50112", "Phone": "-", "Fax": "", "Links": []}, {"BrokerCode": "KK", "No": 55, "Address": "GI -  STIE Jambatan Bulan\nJl. Hasanuddin, Nawaripi, \nKabupaten Mimika, Papua \n", "City": "Mimika Baru", "Zip": "99971", "Phone": "-", "Fax": "", "Links": []}, {"BrokerCode": "KK", "No": 56, "Address": "GI -  Yapis Papua\nJl. Dr. Sam Ratulangi No. 11, Mandala\nPapua \n", "City": "Jayapura", "Zip": "99100", "Phone": "-", "Fax": "", "Links": []}, {"BrokerCode": "KK", "No": 57, "Address": "GI -  Universitas Tadulako\nJl. Soekarno-Hatta KM.9, Tondo, Mantikulore\nSulawesi Tengah \n", "City": "Palu", "Zip": "94148", "Phone": "-", "Fax": "", "Links": []}, {"BrokerCode": "KK", "No": 58, "Address": "GI -  Universitas Jenderal Ahmad Yani\nJl. Terusan Jend. Sudirman, Cibeber, Cimahi Selatan\nJawa Barat \n", "City": "Cimahi", "Zip": "40525", "Phone": "-", "Fax": "", "Links": []}, {"BrokerCode": "KK", "No": 59, "Address": "GI -  Universitas Padjadjaran\nJl. Raya Bandung Sumedang KM.21, Jatinangor\nKabupaten Sumedang, Jawa Barat \n", "City": "Bandung", "Zip": "45363", "Phone": "-", "Fax": "", "Links": []}, {"BrokerCode": "KK", "No": 60, "Address": "GI -  PT Satu Lot Indonesia (Satu Lot)\nJln. Pengayoman, Komp Mirah Ruko RB Blok 05\nPanakukkang . \n", "City": "Makassar ", "Zip": "90231", "Phone": "-", "Fax": "", "Links": []}, {"BrokerCode": "KK", "No": 61, "Address": "GI -  PT Henjoi Sinar Sukses (Kopi Tjoean)\nJl. Raya Kp. Sawah No. 19, RT.003/RW.04, Jatimelati, Kec. Pd. Melati\nBekasi, Jawa Barat \n", "City": "Bekasi", "Zip": "17446", "Phone": "-", "Fax": "", "Links": []}, {"BrokerCode": "KK", "No": 62, "Address": "GI -  Universitas Ngurah Rai\nJalan Padma Penatih, Kelurahan Penatih, Kecamatan Denpasar \nTimur, Kota Denpasar,\n\n\n", "City": "Denpasar", "Zip": "80363 ", "Phone": "-", "Fax": "-", "Links": []}, {"BrokerCode": "KK", "No": 63, "Address": "GI - Universitas Ibn Khaldun Bogor\nJl. Sholeh Iskandar, Kedung Badak, Kec. Tanah Sereal\nKota Bogor, Jawa Barat 16162\n\n\n", "City": "Bogor", "Zip": "16162", "Phone": "-", "Fax": "-", "Links": []}, {"BrokerCode": "KK", "No": 64, "Address": "Galeri Investasi - Universitas Hindu Indonesia\nJalan Sangalangit, Tembau, Penatih, \nKec. Denpasar Tim., Kota Denpasar, ", "City": "Denpasar", "Zip": "80238", "Phone": "-", "Fax": "-", "Links": []}, {"BrokerCode": "KK", "No": 65, "Address": "GI - STIE Panca Bhakti\nJl. Dr. Suharso, Besusu Barat\nSulawesi Tengah, \n", "City": "Palu", "Zip": "94118", "Phone": "-", "Fax": "-", "Links": []}, {"BrokerCode": "KK", "No": 66, "Address": "GI - Politeknik Harapan Bersama\nJl. Mataram No.9, Kel. Pesurungan Lor\nTegal, Jawa Tengah, 52147\n", "City": "Tegal", "Zip": "52147", "Phone": "-", "Fax": "-", "Links": []}, {"BrokerCode": "KK", "No": 67, "Address": "Galeri Investasi IAIN Palu \nJl. Diponegoro No.23, Kelurahan Lere, \nPalu, Sulawesi Tengah, 94221\n\n", "City": "Palu", "Zip": "94221", "Phone": "-", "Fax": "-", "Links": []}, {"BrokerCode": "KK", "No": 68, "Address": "Branch Office - Malang\nJalan MT Haryono 167 Kav 9,  \nJawa Timur \n", "City": "Malang", "Zip": "65145", "Phone": "0341-5089429", "Fax": "-", "Links": []}, {"BrokerCode": "KK", "No": 69, "Address": "Branch Office - Kupang\nGedung BEI Kantor Perwakilan Nusa Tenggara Timur \nJl. WJ Lalamentik Blok 01 No. 01, \n\n", "City": "Kupang", "Zip": "85111 ", "Phone": "0380-8448452", "Fax": "-", "Links": []}, {"BrokerCode": "KK", "No": 70, "Address": "GI - Universitas Advent Indonesia\nJl. Kolonel Masturi No. 288, Parongpong\nBandung Barat, Jawa Barat, 40559", "City": "Bandung", "Zip": "40559", "Phone": "-", "Fax": "-", "Links": []}, {"BrokerCode": "KK", "No": 71, "Address": "GI - Universitas Teknologi Sumbawa\nJl. Olat Maras Batu Alang, Moyo Hulu\nSumbawa, Nusa Tenggara Barat, \n", "City": "Sumbawa", "Zip": "84371", "Phone": "-", "Fax": "-", "Links": []}, {"BrokerCode": "KK", "No": 72, "Address": "GI - Universitas Samawa\nJalan Raya Baypass Sering\nSumbawa, Nusa Tenggara Barat, \n", "City": "Sumbawa,", "Zip": "84316", "Phone": "-", "Fax": "-", "Links": []}, {"BrokerCode": "KK", "No": 73, "Address": "GI - Universitas Boyolali\nJl. Pandanaran No. 405, Dusun 1, Winong\nBoyolali, Jawa Tengah, \n", "City": "Boyolali", "Zip": "57315", "Phone": "-", "Fax": "-", "Links": []}, {"BrokerCode": "KK", "No": 74, "Address": "GI - Universitas Tidar Magelang\nGedung A Fakultas Ekonomi Universitas Tidar\nJalan Kapten Suparman No. 39 \n", "City": "Magelang ", "Zip": "56116", "Phone": "-", "Fax": "-", "Links": []}, {"BrokerCode": "KK", "No": 75, "Address": "GI - Sekolah Tinggi  Keguruan dan Ilmu Pendidikan Gotong Royong Masohi\nJalan Trans Seram, Belakang Negeri Haruru, Masohi, \nKabupaten Maluku Tengah, Maluku, \n", "City": "Masohi", "Zip": "97514", "Phone": "-", "Fax": "-", "Links": []}, {"BrokerCode": "KK", "No": 76, "Address": "GI - Universitas Tidar Magelang\nGedung A Fakultas Ekonomi Universitas Tidar\nJalan Kapten Suparman No. 39", "City": "Magelang", "Zip": "56116", "Phone": "-", "Fax": "-", "Links": []}, {"BrokerCode": "KK", "No": 77, "Address": "GI - Fakultas Ekonomi dan Bisnis Universitas Prof. Dr. Moestopo (Beragama)\nJalan Hang Lekir I No. 8", "City": "Jakarta Pusat", "Zip": "10270", "Phone": "-", "Fax": "-", "Links": []}], "Links": []}