{"Code": "NI", "Name": "BNI SEKURITAS", "StatusCode": "01", "StatusName": "Aktif", "Address": "Sudirman Plaza Indofood Tower, 16, Jalan Jenderal Sudirman , Kav. 76-78", "City": "Jakarta", "Zip": "12910", "Phone": "2554-3946", "Fax": "5793-5831", "Email": "- ", "Website": "www.bnisekuritas.co.id", "JoinDate": "0001-01-01T00:00:00", "JoinStatus": null, "StatusId": "1", "CompanyStatus": "Patungan", "NPWPNo": "01.739.854.6-093.000", "AktaNo": "No. 22 Tgl. 12 April 1995", "ModalDasar": 500000000000.0, "ModalDisetor": 433133333000.0, "OperationalLicense": "Penjamin Emisi Efek, Perantara Pedagang Efek", "Mkbd": 304125711894.05, "Logo": "/StaticData/Brokers/Logo/NI.jpg", "Licenses": [{"BrokerCode": "NI", "LicenseCode": "DMA", "LicenseNo": null, "LicenseDate": "2012-06-21T00:00:00", "LicenseType": "2", "Links": []}, {"BrokerCode": "NI", "LicenseCode": "Marjin", "LicenseNo": null, "LicenseDate": "2006-02-23T00:00:00", "LicenseType": "2", "Links": []}, {"BrokerCode": "NI", "LicenseCode": "Online", "LicenseNo": null, "LicenseDate": "2010-08-05T00:00:00", "LicenseType": "2", "Links": []}, {"BrokerCode": "NI", "LicenseCode": "Online AO", "LicenseNo": null, "LicenseDate": "2015-09-07T00:00:00", "LicenseType": "2", "Links": []}, {"BrokerCode": "NI", "LicenseCode": "PEE", "LicenseNo": "KEP-20/PM/1995", "LicenseDate": "1995-08-08T00:00:00", "LicenseType": "1", "Links": []}, {"BrokerCode": "NI", "LicenseCode": "PPE", "LicenseNo": "KEP-19/PM/1995", "LicenseDate": "1995-08-08T00:00:00", "LicenseType": "1", "Links": []}], "Managements": [{"Id": 702, "BrokerCode": "NI", "JobPositionId": null, "JobPositionName": "Komisaris Utama (Komisaris Independen)", "PersonName": "BOYKE WIBOWO MUKIYAT", "Links": []}, {"Id": 703, "BrokerCode": "NI", "JobPositionId": "11", "JobPositionName": "Komisaris", "PersonName": "YOSHIHIRO ISHIWATA", "Links": []}, {"Id": 704, "BrokerCode": "NI", "JobPositionId": "20", "JobPositionName": "Direktur Utama", "PersonName": "AGUNG PRABOWO", "Links": []}, {"Id": 705, "BrokerCode": "NI", "JobPositionId": "21", "JobPositionName": "Direktur", "PersonName": "PUTU BAGUS KRESNA", "Links": []}, {"Id": 706, "BrokerCode": "NI", "JobPositionId": "21", "JobPositionName": "Direktur", "PersonName": "REZA BENITO ZAHAR", "Links": []}], "ShareHolders": [{"BrokerCode": "NI", "ShareHolderNo": 1, "ShareHolderName": "PT Bank Negara Indonesia (Persero) Tbk", "Status": "Badan Hukum", "NumberOfShare": 75.0, "OwnershipStatus": "Lokal", "Country": "Indonesia", "Links": []}, {"BrokerCode": "NI", "ShareHolderNo": 2, "ShareHolderName": "SBI Financial Services Co., Ltd", "Status": "Badan Hukum", "NumberOfShare": 25.0, "OwnershipStatus": "Asing", "Country": "Jepang", "Links": []}], "BranchOffice": [{"BrokerCode": "NI", "No": 1, "Address": "Jl. Gubernur Suryo No. 36  ", "City": "Surabaya", "Zip": "60271", "Phone": "(031) 532-0912", "Fax": "(031) 531-8425", "Links": []}, {"BrokerCode": "NI", "No": 2, "Address": "Jl. Perintis Kemerdekaan 3 Lt.3", "City": "Bandung", "Zip": "40117", "Phone": "022-4213375", "Fax": "022-4220604", "Links": []}, {"BrokerCode": "NI", "No": 3, "Address": "Jl. Laksda Adisucipto 137", "City": "Yogyakarta", "Zip": "55282", "Phone": "(0274) 581001-584032", "Fax": "(0274) 584023", "Links": []}, {"BrokerCode": "NI", "No": 4, "Address": "Jl. Pemuda No. 12", "City": "Medan", "Zip": "20151", "Phone": "(061) 457-9616", "Fax": "(061) 457-9656", "Links": []}, {"BrokerCode": "NI", "No": 5, "Address": "Jl. Buring No. 58", "City": "Malang", "Zip": "65119", "Phone": "(0341) 321-213,321-430", "Fax": "(0341)356876", "Links": []}, {"BrokerCode": "NI", "No": 6, "Address": "Jl. Jend. Sudirman 132", "City": "Palembang", "Zip": "30126", "Phone": "(0711) 361-969", "Fax": "(0711) 319-663", "Links": []}, {"BrokerCode": "NI", "No": 7, "Address": "Pertokoan Mangga Dua Blok E4 No. 7 \\nJl. Mangga Dua Raya", "City": "Jakarta Utara", "Zip": "14440", "Phone": "612-3804-5", "Fax": "612-3806", "Links": []}, {"BrokerCode": "NI", "No": 8, "Address": "Outlet Surakarta/Solo \\nJl. Honggo Wongso No. 30A Surakarta", "City": "Surakarta", "Zip": "-", "Phone": "0271 - 729667", "Fax": "0271 - 729668", "Links": []}, {"BrokerCode": "NI", "No": 9, "Address": "Outlet Denpasar  Komplek Pertokoan Diponegoro Megah Blok A5-6 Lantai 2, Jl. Diponegoro No. 100 Denpasar", "City": "Bali", "Zip": "-", "Phone": "0361 - 264376", "Fax": "0361 - 229170", "Links": []}, {"BrokerCode": "NI", "No": 10, "Address": "Outlet Pekanbaru  \\nBank BNI Cabang Riau \\nJl. Riau No. 124 Lantai 2 Pekanbaru", "City": "Pekanbaru", "Zip": "-", "Phone": "0761 - 46757 / 839698", "Fax": "0761 - 856279", "Links": []}, {"BrokerCode": "NI", "No": 11, "Address": "Cabang Semarang Thamrin Square Blok B5 Jl.MH.Thamrin No. 5", "City": "Semarang", "Zip": "-", "Phone": "(024) 3566-412/5, 6412-6413/7", "Fax": "(024) 358-1713", "Links": []}, {"BrokerCode": "NI", "No": 12, "Address": "Outlet Puri Indah  \\nRuko Sentra Niaga Puri Indah  Blok T1 Lt.2 No.11-12 Puri Kembangan", "City": "Jakarta Barat", "Zip": "-", "Phone": "021 - 58357464", "Fax": "021 - 58357465", "Links": []}, {"BrokerCode": "NI", "No": 13, "Address": "Outlet Wisma Bumiputera  Gedung Wisma Bumiputera, Jl. Jendral Sudirman Kav. 75 Lt. 18 Jakarta ", "City": "Jakarta", "Zip": "12910", "Phone": "021 - 2523349", "Fax": "021 - 2523350", "Links": []}, {"BrokerCode": "NI", "No": 14, "Address": "Kantor Cabang BNI Banda Aceh lt. 2  \\nJl. KH Ahmad Dahlan No. 111", "City": "Banda Aceh", "Zip": "-", "Phone": "0651 31109", "Fax": "0651 31107", "Links": []}, {"BrokerCode": "NI", "No": 15, "Address": "Outlet Manado  \\nBNI KLN Megamas Lt.3 \\nKawasan Mega Mas Blok I C1, \\nJl. Piere Tendean No. 20 Manado", "City": "Manado", "Zip": "-", "Phone": "0431 - 847256", "Fax": "0431 - 847256", "Links": []}, {"BrokerCode": "NI", "No": 16, "Address": "Central Park Office Tower Podomoro City \\nJl. Letjen S. Parman Kav 28, Tanjung Duren Selatan, Grogol Petamburan", "City": "Jakarta Barat", "Zip": "-", "Phone": "021-29034215", "Fax": "021-29034216", "Links": []}, {"BrokerCode": "NI", "No": 17, "Address": "Outlet Blimbing  Jl. Sunandar Priyo Sudarmo Kav. A No. 1, Kel. Purwantoro Kec. Blimbing, Malang 65122", "City": "Malang", "Zip": "65122", "Phone": "0341 - 409030", "Fax": "0341 - 406543", "Links": []}, {"BrokerCode": "NI", "No": 18, "Address": "Pondok Indah Plaza V blok D-8 Jl. Margaguna Raya Jakarta", "City": "Jakarta", "Zip": "-", "Phone": "021-72793747", "Fax": "021-72793701", "Links": []}, {"BrokerCode": "NI", "No": 19, "Address": "Pertokoan Yap Square, blok A-7 Jl. C. Simanjuntak no. 2 Yogyakarta", "City": "Yogyakarta", "Zip": "-", "Phone": "0274-563833", "Fax": "0274-563835", "Links": []}, {"BrokerCode": "NI", "No": 20, "Address": "Outlet Banjarmasin  Gedung Bank BNI Antasari Lt.2 Jl. Pangeran Antasari No.44 RT.008 Banjarmasin", "City": "Banjarmasin", "Zip": "-", "Phone": "0511 - 3253735", "Fax": "0511 - 32537543", "Links": []}, {"BrokerCode": "NI", "No": 21, "Address": "Outlet Ancol \\nJl. RE Martadinata 8 Blok A 2 Ancol\\nJakarta ", "City": "Jakarta", "Zip": "14430", "Phone": "(021) 6918262", "Fax": "021-6918202", "Links": []}, {"BrokerCode": "NI", "No": 22, "Address": "Outlet Balikpapan\\nJl. MT Haryono No. 81 RT 01", "City": "Balikpapan", "Zip": "-", "Phone": "(0542) 877157", "Fax": "(0542) 877157", "Links": []}, {"BrokerCode": "NI", "No": 23, "Address": "Outlet Bumi Serpong Damai (BSD)  Mall WTC Matahari No. 922 Jl. Raya Serpong Kel. Pondok Jagung Kec. Serpong Utara, Tangerang ", "City": "Tangerang", "Zip": "15326", "Phone": "021 - 53155728", "Fax": "021 - 53155728", "Links": []}, {"BrokerCode": "NI", "No": 24, "Address": "Outlet Rasuna Office Park\\nRasuna Office Park unit OR-8 Kompleks Rasuna Epicentrum", "City": "Jakarta", "Zip": "-", "Phone": "021-83786579", "Fax": "021-93904083", "Links": []}, {"BrokerCode": "NI", "No": 25, "Address": "Outlet Mampang\\nGraha Mampang Lt.1 Jl Mampang Prapatan Raya No.100 Jakarta ", "City": "Jakarta", "Zip": "12760", "Phone": "021-7970096", "Fax": "021-7970347", "Links": []}, {"BrokerCode": "NI", "No": 26, "Address": "Outlet Batam\\nKompleks Palm Spring \\nBlok B 1 No.6 Batam", "City": "Batam", "Zip": "-", "Phone": "0778-468327", "Fax": "0778-469088", "Links": []}, {"BrokerCode": "NI", "No": 27, "Address": "Outlet Padang  \\nJl. Veteran No. 10", "City": "Padang", "Zip": "-", "Phone": "0751 -893420", "Fax": "0751 - 893420", "Links": []}, {"BrokerCode": "NI", "No": 28, "Address": "Outlet Karawang\\nJalan Tuparev No.397 Karawang ", "City": "Karawang", "Zip": "41314", "Phone": "(0267) 8452866", "Fax": "0267-408163", "Links": []}, {"BrokerCode": "NI", "No": 29, "Address": "Outlet Gandaria  \\nJl. Gandaria III no. 6C RT 007/RW.01 Kel. Kramat Pela Kec. Kebayoran Baru Jakarta ", "City": "Jakarta Selatan", "Zip": "-", "Phone": "021 - 7231794", "Fax": "021 - 7221389", "Links": []}, {"BrokerCode": "NI", "No": 30, "Address": "Outlet Rawamangun  \\nGedung Agnesia Warna Artha Lt.4 Blok 4 H, \\nJl. Pemuda 73 B, Jakarta Timur", "City": "Jakarta", "Zip": "13220", "Phone": "021 - 47868202", "Fax": "021 - 47868202", "Links": []}, {"BrokerCode": "NI", "No": 31, "Address": "Outlet Pluit  \\nJl. Muara Karang Raya Blok A8 No. 23 RT 002 RW 012 Pluit Penjaringan Jakarta Utara", "City": "Jakarta", "Zip": "-", "Phone": "021 - 6628757", "Fax": "021 - 6628758", "Links": []}, {"BrokerCode": "NI", "No": 32, "Address": "Outlet Buaran\\nRuko U no. 234 Jl. Taman Buaran Indah Klender Jakarta Timur", "City": "Jakarta", "Zip": "-", "Phone": "021-8610552", "Fax": "021-86616068", "Links": []}, {"BrokerCode": "NI", "No": 33, "Address": "Outlet Total\\nGedung Total lt.10 Jl. Let. Jend. S Parman Kav. 106 A Jakarta", "City": "Jakarta", "Zip": "-", "Phone": "021-56972926-28", "Fax": "02156972926", "Links": []}, {"BrokerCode": "NI", "No": 34, "Address": "Outlet Bogor\\nJl. Raya Pajajaran no. 37 Bogor", "City": "Bogor", "Zip": "-", "Phone": "0251-8340557", "Fax": "0251-8340580", "Links": []}, {"BrokerCode": "NI", "No": 35, "Address": "Pojok Bursa Universitas Islam Negeri \\nSultan Syarif Kasim Riau\\nJl. HR Soebrantas No.155 Km.18, Simpang Baru Panam, Pekanbaru. 28293", "City": "Pekanbaru", "Zip": "-", "Phone": "0761-589819", "Fax": "0761-856279", "Links": []}, {"BrokerCode": "NI", "No": 36, "Address": "Pojok Bursa Universitas Katolik Widya Mandala\\nJl. Dinoyo 42-44 Surabaya", "City": "Surabaya", "Zip": "-", "Phone": "031 - 5616062", "Fax": "0361-5616062", "Links": []}, {"BrokerCode": "NI", "No": 37, "Address": "Pojok Bursa IAIN Walisongo\\nJl. Prof. DR. Hamka Kampus III Ngaliyan Semarang ", "City": "Semarang", "Zip": "50185", "Phone": "024-7601291", "Fax": "024-7624691", "Links": []}, {"BrokerCode": "NI", "No": 38, "Address": "Outlet Fatmawati\\nITC Dutamas Fatmawati Blok D1 No.2 Jl. RS Fatmawati 39 Jakarta", "City": "Jakarta", "Zip": "12150", "Phone": "021 - 7222889", "Fax": "021 - 7227462", "Links": []}, {"BrokerCode": "NI", "No": 39, "Address": "Outlet Salatiga, \\nJl. Diponegoro No. 68 Salatiga", "City": "Salatiga", "Zip": "-", "Phone": "0298 - 313007", "Fax": "0298 - 324007", "Links": []}, {"BrokerCode": "NI", "No": 40, "Address": "Outlet Graha Pangeran Surabaya, \\nGedung Bank BNI KCU Graha Pangeran Lt. 2\\nJl. Ahamad Yani 286 Surabaya", "City": "Surabaya", "Zip": "60234", "Phone": "031 - 8273393", "Fax": "031 - 8273403", "Links": []}, {"BrokerCode": "NI", "No": 41, "Address": "Pojok Bursa Universitas Hasanudin   \\nJl. Taman Larea No.10 Makassar Telp. ", "City": "Makassar", "Zip": "-", "Phone": "0411 - 2000246", "Fax": "-", "Links": []}, {"BrokerCode": "NI", "No": 42, "Address": "Pojok Bursa Universitas Mahasaraswati   \\nJl. Kamboja No. 11A Denpasar Bali", "City": "Bali", "Zip": "-", "Phone": "0361 - 262725", "Fax": "0361 - 262725", "Links": []}, {"BrokerCode": "NI", "No": 43, "Address": "Pojok Bursa Politeknik Negeri Bali   \\nJl. Kampus Bukit Jimbaran Kuta Badung", "City": "Bali", "Zip": "-", "Phone": "0361 - 707981", "Fax": "-", "Links": []}, {"BrokerCode": "NI", "No": 44, "Address": "Pojok Bursa Universitas Warmadewa  \\nJl. Terompong No.24 Tanjung Bungkak Denpasar Bali", "City": "Bali", "Zip": "-", "Phone": "0361 - 244450", "Fax": "0361 - 244450", "Links": []}, {"BrokerCode": "NI", "No": 45, "Address": "Pojok Bursa Universitas Muhammadiyah Aceh   Jl. Muhammadiyah No.91 Bathoh Leungbata Banda Aceh", "City": "Banda Aceh", "Zip": "-", "Phone": "0651 - 31583", "Fax": "0651 - 34092", "Links": []}, {"BrokerCode": "NI", "No": 46, "Address": "Pojok Bursa Universitas Sumatera Utara Pascasarjana Fakultas Ekonomi  USU Medan\\n Jl. T. M. Hanafiah Gd. Pascasarjana Fakultas Ekonomi Medan", "City": "Medan", "Zip": "-", "Phone": "061 - 8225464", "Fax": "061 - 8225464", "Links": []}, {"BrokerCode": "NI", "No": 47, "Address": "Outlet MTH Square \\n Gedung MTH Square UG Floor Unit 10A, \\nJl. MT Haryono Kav. 10A Jakarta Timur", "City": "Jakarta", "Zip": "-", "Phone": "021 - 29067383", "Fax": "021 - 29067383", "Links": []}, {"BrokerCode": "NI", "No": 48, "Address": "Outlet Universitas Gajah Mada (UGM)  Jl. Persatuan No.1 Bulaksumur  Yogyakarta ", "City": "Yogyakarta", "Zip": "55281", "Phone": "0274 - 584064", "Fax": "-", "Links": []}, {"BrokerCode": "NI", "No": 49, "Address": "Outlet Kapuk Sedayu Square\\nJl. Outer Ring Road kamal Raya\\nKompleks Ruko Sedayu Square Blok H25 Cengkareng", "City": "Jakarta Barat", "Zip": "11730", "Phone": "082817079051-52", "Fax": "-", "Links": []}, {"BrokerCode": "NI", "No": 50, "Address": "Outlet Golf Lake\\nJl. Kapuk Kamal Raya Golf Lake Residence\\nRuko Paris Blok A No 66 Cengkareng", "City": "Jakarta Barat", "Zip": "11730", "Phone": "021-29030032-34", "Fax": "021-29030035", "Links": []}, {"BrokerCode": "NI", "No": 51, "Address": "Outlet Gondangdia\\nGd. Gondangdia Lama No.25 J\\nl. RP Soeroso No.25", "City": "Jakarta Pusat", "Zip": "10330", "Phone": "021-3906237", "Fax": "021-31935195", "Links": []}, {"BrokerCode": "NI", "No": 52, "Address": "Outlet KS Tubun\\nJl. KS Tubun No 25A Petamburan ", "City": "Jakarta Pusat", "Zip": "10601", "Phone": "021-53673210", "Fax": "021-53650311", "Links": []}], "Links": []}