{"Code": "PD", "Name": "INDO PREMIER SEKURITAS", "StatusCode": "01", "StatusName": "Aktif", "Address": "Pacific Century Place, 16, SCBD Lot 10, Jl. Jend. Sudirman, Kav 52-53", "City": "Jakarta", "Zip": "12190", "Phone": "5088-7168", "Fax": "5088-7167", "Email": "- ", "Website": "www.indopremier.com", "JoinDate": "0001-01-01T00:00:00", "JoinStatus": null, "StatusId": "1", "CompanyStatus": "Lokal", "NPWPNo": "01.760.267.3-054.000", "AktaNo": "64 ( Akta Pendirian PT)", "ModalDasar": 150000000000.0, "ModalDisetor": 106000000000.0, "OperationalLicense": "Manajer Investasi, Penjamin Emisi Efek", "Mkbd": 582294316383.86, "Logo": "/StaticData/Brokers/Logo/PD.jpg", "Licenses": [{"BrokerCode": "PD", "LicenseCode": "DMA", "LicenseNo": null, "LicenseDate": "2014-04-11T00:00:00", "LicenseType": "2", "Links": []}, {"BrokerCode": "PD", "LicenseCode": "Marjin", "LicenseNo": null, "LicenseDate": "2005-03-18T00:00:00", "LicenseType": "2", "Links": []}, {"BrokerCode": "PD", "LicenseCode": "MI ", "LicenseNo": "KEP-14/PM/MI/2002", "LicenseDate": "2002-09-27T00:00:00", "LicenseType": "1", "Links": []}, {"BrokerCode": "PD", "LicenseCode": "Online", "LicenseNo": null, "LicenseDate": "2010-11-03T00:00:00", "LicenseType": "2", "Links": []}, {"BrokerCode": "PD", "LicenseCode": "Online AO", "LicenseNo": null, "LicenseDate": "2011-07-28T00:00:00", "LicenseType": "2", "Links": []}, {"BrokerCode": "PD", "LicenseCode": "Online Syariah", "LicenseNo": null, "LicenseDate": "2011-09-21T00:00:00", "LicenseType": "2", "Links": []}, {"BrokerCode": "PD", "LicenseCode": "PEE", "LicenseNo": "KEP-11/PM/PEE/96", "LicenseDate": "1996-10-01T00:00:00", "LicenseType": "1", "Links": []}], "Managements": [{"Id": 726, "BrokerCode": "PD", "JobPositionId": "11", "JobPositionName": "Komisaris", "PersonName": "UNGKORO DARMOSUSILO", "Links": []}, {"Id": 727, "BrokerCode": "PD", "JobPositionId": "11", "JobPositionName": "Komisaris", "PersonName": "ERRY FIRMANSYAH                                             ", "Links": []}, {"Id": 728, "BrokerCode": "PD", "JobPositionId": "11", "JobPositionName": "Komisaris", "PersonName": "HERI SUNARYADI", "Links": []}, {"Id": 729, "BrokerCode": "PD", "JobPositionId": "20", "JobPositionName": "Direktur Utama", "PersonName": "THE MOLEONOTO", "Links": []}, {"Id": 730, "BrokerCode": "PD", "JobPositionId": "21", "JobPositionName": "Direktur", "PersonName": "FREDY ROBBY SUMENDAP", "Links": []}, {"Id": 731, "BrokerCode": "PD", "JobPositionId": "21", "JobPositionName": "Direktur", "PersonName": "ALEX WIDI KRISTIONO", "Links": []}], "ShareHolders": [{"BrokerCode": "PD", "ShareHolderNo": 1, "ShareHolderName": "PT INDO PREMIER CAPITAL", "Status": "", "NumberOfShare": 99.98, "OwnershipStatus": "Lokal", "Country": "Indonesia                ", "Links": []}, {"BrokerCode": "PD", "ShareHolderNo": 2, "ShareHolderName": "UNGKORO DARMOSUSILO", "Status": "", "NumberOfShare": 0.01, "OwnershipStatus": "Lokal", "Country": "Indonesia                ", "Links": []}, {"BrokerCode": "PD", "ShareHolderNo": 3, "ShareHolderName": "NIXON JACOBUS SILFANUS", "Status": "", "NumberOfShare": 0.01, "OwnershipStatus": "Lokal", "Country": "Indonesia                ", "Links": []}], "BranchOffice": [{"BrokerCode": "PD", "No": 1, "Address": "Kelapa Gading Jl. Rukan Boulevard Artha Gading Blok A7A No. 3 Kelapa gading", "City": "Jakarta", "Zip": "-", "Phone": "021 4587 4168", "Fax": "021 4587 4167", "Links": []}, {"BrokerCode": "PD", "No": 2, "Address": "JL Sunda No. 76 C RT 001/0020 Kel. Merdeka, Kec. Sumur", "City": "Bandung", "Zip": "40113", "Phone": "022 426 1010", "Fax": "022 422 0551", "Links": []}, {"BrokerCode": "PD", "No": 3, "Address": "Jl. Sulawesi No. 88", "City": "Makassar", "Zip": "-", "Phone": "0411 363 3168", "Fax": "0411 363 3167", "Links": []}, {"BrokerCode": "PD", "No": 4, "Address": "Jl. Sultan Agung 104-106", "City": "Semarang", "Zip": "-", "Phone": "024 850 5961", "Fax": "024 850 5962", "Links": []}, {"BrokerCode": "PD", "No": 5, "Address": "Intiland Tower lt. Mezzanine   Jl. Panglima Sudirman 101-103", "City": "Surabaya", "Zip": "60271", "Phone": "031 548 7050", "Fax": "031 548 7051", "Links": []}, {"BrokerCode": "PD", "No": 6, "Address": "Gedung Uni Plaza lt. 3  West Tower   Jl. MT Haryono No. A-1  Medan  ", "City": "Medan", "Zip": "20231", "Phone": "061 455 0168", "Fax": "061 455 2371", "Links": []}, {"BrokerCode": "PD", "No": 7, "Address": "Jl. Urip Sumoharjo No.29B", "City": "Solo", "Zip": "-", "Phone": "0271 661 196", "Fax": "0271 633 469", "Links": []}, {"BrokerCode": "PD", "No": 8, "Address": "Ruko ITC BSD, Lt. 1  No. 30  Jln. Pahlawan Seribu Serpong", "City": "Tangerang", "Zip": "-", "Phone": "021 5315 6701", "Fax": "021 5315 6702", "Links": []}, {"BrokerCode": "PD", "No": 9, "Address": "Grand Puri Niaga  Jl. Puri Kencana Blok K6 No. 1 L  Kembangan", "City": "Jakarta Barat", "Zip": "-", "Phone": "021 5835 1600", "Fax": "021 5835 1601", "Links": []}, {"BrokerCode": "PD", "No": 10, "Address": "Jl. Jaksa Agung Suprapto No.40 B2 Malang", "City": "Malang", "Zip": "-", "Phone": "0341-352 925", "Fax": "0341-352 924", "Links": []}, {"BrokerCode": "PD", "No": 11, "Address": "Rukan Sentra Bisnis Pluit Blok A No. 9  Jl. Pluit Sakti Raya No. 28  Pluit - Penjaringan, Jakarta", "City": "Jakarta", "Zip": "14450", "Phone": "021-6669 3368", "Fax": "021 6669 3390", "Links": []}, {"BrokerCode": "PD", "No": 12, "Address": "Ruko Mega Mas Blok II F2 No 47, Jl Laksda John Lie, Kawasan Mega Mas Kel Wenang Selatan, Kec. Wenang", "City": "Manado", "Zip": "95111", "Phone": "0431 882 1733", "Fax": "0431 882 1732", "Links": []}, {"BrokerCode": "PD", "No": 13, "Address": "Sudirman City Square B 11  Jl. Jend. Sudirman Pekanbaru", "City": "Pekanbaru", "Zip": "28114", "Phone": "0761 789 4045", "Fax": "0761 789 4049", "Links": []}, {"BrokerCode": "PD", "No": 14, "Address": "Komplek Rukan Perdana Square Blok I No.2 Jl. Perdana - Pontianak", "City": "Pontianak", "Zip": "78124", "Phone": "0561 658 0131", "Fax": "0561 658 0132", "Links": []}, {"BrokerCode": "PD", "No": 15, "Address": "Jl. Jend. Sudirman No. 379B Balikpapan Selatan - Balikpapan", "City": "Balikpapan", "Zip": "76114", "Phone": "0542 744 730", "Fax": "0542 744 731", "Links": []}, {"BrokerCode": "PD", "No": 16, "Address": "Jalan Jendral Sudirman No. 5D lampung", "City": "Lampung", "Zip": "35118", "Phone": "0721 261 480", "Fax": "-", "Links": []}, {"BrokerCode": "PD", "No": 17, "Address": "Jalan Pondok No. 90 A Padang", "City": "Padang", "Zip": "-", "Phone": "0751 35504", "Fax": "0751 811340", "Links": []}, {"BrokerCode": "PD", "No": 18, "Address": "Rukan Plaza 5 Pondok Indah  Jl. Margaguna Raya Blok B-03 Pondok Indah Jakarta Selatan", "City": "Jakarta", "Zip": "12140", "Phone": "021739 7506", "Fax": "021 739 7906", "Links": []}, {"BrokerCode": "PD", "No": 19, "Address": "Pojok Bursa  Universitas Padjadjaran  Jl. Dipatiukur No 35 Bandung", "City": "Bandung", "Zip": "-", "Phone": "085220962108", "Fax": "-", "Links": []}, {"BrokerCode": "PD", "No": 20, "Address": "Pojok Bursa  Universitas Sebelas Maret Gd. Empat Fakultas Ekonomi  Jl. Ir. Sutami No. 36A, Surakarta Solo  ", "City": "Solo", "Zip": "-", "Phone": " -", "Fax": "-", "Links": []}, {"BrokerCode": "PD", "No": 21, "Address": "Pojok Bursa Yayasan Pendidikan Fajar Ujung Pandang Gd. Fajar 1 Lt. 2  Jl. Racinf Senter No. 101 Makassar", "City": "Makassar", "Zip": "-", "Phone": "085299572809", "Fax": "-", "Links": []}, {"BrokerCode": "PD", "No": 22, "Address": "Pojok Bursa Universitas Muria Kudus   Gd. Fakultas Ekonomi Gondang Manis Bae PO BOX 53 Kudus  ", "City": "Kudus", "Zip": "-", "Phone": "0899 593 1001", "Fax": "-", "Links": []}, {"BrokerCode": "PD", "No": 23, "Address": "Pojok Bursa UIN Syarif Hidayatullah  Jl. Ir. H. Juanda No. 95 Ciputat Tangerang", "City": "Tangerang", "Zip": "15339", "Phone": "021 -", "Fax": "-", "Links": []}], "Links": []}