{"Code": "YP", "Name": "MIRAE ASSET SEKURITAS INDONESIA", "StatusCode": "01", "StatusName": "Aktif", "Address": "Treasury Tower, 50, District 8, SCBD Lot 28, Jl. Jenderal Sudirman, Kav. 52 \u2013 54", "City": "Jakarta Selatan", "Zip": "12190", "Phone": "(021) 5088 7000", "Fax": "(021) 5088 7001", "Email": "[email\u00a0protected]", "Website": "http://sekuritas.miraeasset.co.id/", "JoinDate": "0001-01-01T00:00:00", "JoinStatus": null, "StatusId": "1", "CompanyStatus": "Patungan", "NPWPNo": "01.357.380.3-054.000", "AktaNo": "No. 221, Tgl. 25 Mei 1990", "ModalDasar": 1843110000000.0, "ModalDisetor": 614370000000.0, "OperationalLicense": "Penjamin Emisi Efek, Perantara Pedagang Efek", "Mkbd": 1710054847065.0, "Logo": "/StaticData/Brokers/Logo/YP.jpg", "Licenses": [{"BrokerCode": "YP", "LicenseCode": "Marjin", "LicenseNo": null, "LicenseDate": "2011-05-25T00:00:00", "LicenseType": "2", "Links": []}, {"BrokerCode": "YP", "LicenseCode": "PEE", "LicenseNo": "KEP-45/D.04/2014", "LicenseDate": "2014-09-24T00:00:00", "LicenseType": "1", "Links": []}, {"BrokerCode": "YP", "LicenseCode": "PPE", "LicenseNo": "KEP-135/PM/1992", "LicenseDate": "1992-03-09T00:00:00", "LicenseType": "1", "Links": []}], "Managements": [{"Id": 1032, "BrokerCode": "YP", "JobPositionId": "10", "JobPositionName": "Komisaris Utama", "PersonName": "Kim Sang Joon", "Links": []}, {"Id": 1033, "BrokerCode": "YP", "JobPositionId": "79", "JobPositionName": "Komisaris Independen", "PersonName": "Samsul Hidayat", "Links": []}, {"Id": 1034, "BrokerCode": "YP", "JobPositionId": "20", "JobPositionName": "Direktur Utama", "PersonName": "Tae Yong Shim", "Links": []}, {"Id": 1035, "BrokerCode": "YP", "JobPositionId": "21", "JobPositionName": "Direktur", "PersonName": "Daewoong An", "Links": []}, {"Id": 1036, "BrokerCode": "YP", "JobPositionId": "21", "JobPositionName": "Direktur", "PersonName": "Arisandhi Indrodwisatio", "Links": []}], "ShareHolders": [{"BrokerCode": "YP", "ShareHolderNo": 1, "ShareHolderName": "Mirae Asset Securities (HK) Limited", "Status": "Badan Hukum", "NumberOfShare": 99.0, "OwnershipStatus": "Asing", "Country": "Hongkong", "Links": []}, {"BrokerCode": "YP", "ShareHolderNo": 2, "ShareHolderName": "PT AITI Investment", "Status": "Badan Hukum", "NumberOfShare": 0.51, "OwnershipStatus": "Lokal", "Country": "Indonesia", "Links": []}, {"BrokerCode": "YP", "ShareHolderNo": 3, "ShareHolderName": "PT SNET Indonesia", "Status": "Badan Hukum", "NumberOfShare": 0.49, "OwnershipStatus": "Lokal", "Country": "Indonesia", "Links": []}], "BranchOffice": [{"BrokerCode": "YP", "No": 1, "Address": "Rukan Grand Puri Niaga  Blok K-6 No. 1 Puri Kencana", "City": "Jakarta", "Zip": "-", "Phone": "021-58304135/58304242/58304244", "Fax": "021-58351527", "Links": []}, {"BrokerCode": "YP", "No": 2, "Address": "Ruko ITC BSD  Blok VII-C No. 33A (Sektor VII-C) Nomor 28  Jl. Pahlawan Seribu Serpong Tanggerang Selatan", "City": "Tangerang", "Zip": "-", "Phone": "021-5381244/5381284/5381134", "Fax": "021-5381244", "Links": []}, {"BrokerCode": "YP", "No": 3, "Address": "Ruko Kebayoran Arcade 1. Jl. Boulevard Bintaro Jaya Blok C3 No. 53 Pondok Jaya, Pondok Aren, Tangerang Selatan", "City": "Tangerang Selatan", "Zip": "15220", "Phone": "021-22215158", "Fax": "-", "Links": []}, {"BrokerCode": "YP", "No": 4, "Address": "Jl. Magelang No. 79 B\nKel. Kricak, Kec. Tegalrejo\nYogyakarta", "City": "Yogyakarta", "Zip": "55232", "Phone": "0274-3151155", "Fax": "0274-548804", "Links": []}, {"BrokerCode": "YP", "No": 5, "Address": "Ruko Apartment Margonda Residence  Jl. Margonda Raya Blok 1A", "City": "Depok", "Zip": "16424", "Phone": "021 - 78880710/78880702", "Fax": "021 - 7870943", "Links": []}, {"BrokerCode": "YP", "No": 6, "Address": "Ruko HR Muhammad Square Blok A 11, Jl. HR. Muhammad No. 140", "City": "Surabaya", "Zip": "60226", "Phone": "031 - 7313782", "Fax": "-", "Links": []}, {"BrokerCode": "YP", "No": 7, "Address": "Jl. Raya Boulevard Barat LC 6/5,\nKelapa Gading Barat, Kelapa Gading", "City": "Jakarta", "Zip": "-", "Phone": "021-24520353", "Fax": "021-24520352", "Links": []}, {"BrokerCode": "YP", "No": 8, "Address": "Ruko ITC Roxy Mas Blok D-3/4, Jl. Hasyim Ashari, Cideng, Gambir, Jakarta Pusat", "City": "Jakarta", "Zip": "-", "Phone": "021-63858582", "Fax": "-", "Links": []}, {"BrokerCode": "YP", "No": 9, "Address": "Jl. Rajiman No. 1, Cicendo, Pasir Kaliki.", "City": "Bandung", "Zip": "-", "Phone": "022 - 4269422", "Fax": "-", "Links": []}, {"BrokerCode": "YP", "No": 10, "Address": "Jl. Pluit Sakti Raya No. 31A  Blok A No.43 Pluit Jakarta Utara", "City": "Jakarta", "Zip": "-", "Phone": "021 - 66678482/66678483", "Fax": "021 - 66678454", "Links": []}, {"BrokerCode": "YP", "No": 11, "Address": "Ruko S. Parman  Jl. Letjen S.Parman 56 Kav. A-3  Malang Jawa Timur", "City": "Malang", "Zip": "-", "Phone": "0341-418420", "Fax": "0341 - 322711", "Links": []}, {"BrokerCode": "YP", "No": 12, "Address": "Jl. Pemuda No. 171  Gedung Sucofindo Lobby", "City": "Semarang", "Zip": "-", "Phone": "024-3582449", "Fax": "024-3512027", "Links": []}, {"BrokerCode": "YP", "No": 13, "Address": "Jl. Jenderal Sudirman No. 80", "City": "Palembang", "Zip": "30126", "Phone": "0711 - 362153", "Fax": "0711 - 362163", "Links": []}, {"BrokerCode": "YP", "No": 14, "Address": "Gedung Indovision Bali Lt. 2 Unit E\nJl. Diponegoro No.109\nKel. Dauh Puri Kelod, Kec. Denpasar Barat", "City": "Denpasar", "Zip": "80114", "Phone": "0361-224420", "Fax": "-", "Links": []}, {"BrokerCode": "YP", "No": 15, "Address": "Komplek Ruko Center Point Blok M 07, Kel. Gang Buntu, Kec. Medan Timur, Medan.", "City": "Medan", "Zip": "20231", "Phone": "061 - 80510192", "Fax": "-", "Links": []}, {"BrokerCode": "YP", "No": 16, "Address": "Ruko Super Makmur II No. 9 B\nJl. Ir. Soekarno Solo Baru", "City": "Solo", "Zip": "57552", "Phone": "0271 - 622862", "Fax": "0271 - 622862", "Links": []}, {"BrokerCode": "YP", "No": 17, "Address": "Gedung Setiabudi 2 Lt. 6 Ruang 604A,\nJl. HR. Rasuna Said Kav. 62\nJakarta Selatan", "City": "Jakarta", "Zip": "12950", "Phone": "021-52904225", "Fax": "-", "Links": []}, {"BrokerCode": "YP", "No": 18, "Address": "Jl. RS Fatmawati No. 33 H, Gandaria Selatan, Cilandak, Jakarta Selatan.", "City": "Jakarta", "Zip": "-", "Phone": "021-75817575", "Fax": "-", "Links": []}, {"BrokerCode": "YP", "No": 19, "Address": "Ruko Surya Inti Permata III Blok B5, Jl. Kombes Pol M. Duryat No. 14-16, Surabaya", "City": "Surabaya", "Zip": "60262", "Phone": "031-5349500", "Fax": "-", "Links": []}, {"BrokerCode": "YP", "No": 20, "Address": "Harco Mangga Dua, Jl. Mangga Dua Raya Blok E No.27, Mangga Dua Selatan, Sawah Besar.", "City": "Jakarta Pusat", "Zip": "10730", "Phone": "021-62201265", "Fax": "-", "Links": []}, {"BrokerCode": "YP", "No": 21, "Address": "Kantor Perwakilan IDX Padang, \nJl. Ujung Gurun, 154 B", "City": "Padang", "Zip": "-", "Phone": "0751-8955249", "Fax": "-", "Links": []}, {"BrokerCode": "YP", "No": 22, "Address": "Kantor Perwakilan IDX Makassar, Jl. Dr. Sam Ratulangi No. 124, Makassar.", "City": "Makassar", "Zip": "-", "Phone": "0411-8913128", "Fax": "-", "Links": []}, {"BrokerCode": "YP", "No": 23, "Address": "STIE Trisakti Bekasi, Jl. Siliwangi No. 74, Bekasi", "City": "Bekasi", "Zip": "17114", "Phone": "021-82735090", "Fax": "-", "Links": []}, {"BrokerCode": "YP", "No": 24, "Address": "STIE Trisaksi, Jl. Kyai Tapa 20, Grogol, Jakarta Barat.", "City": "Jakarta", "Zip": "-", "Phone": "-", "Fax": "-", "Links": []}, {"BrokerCode": "YP", "No": 25, "Address": "STIE YKPN, Jl. Seturan Caturtunggal, Depok, Sleman, Yogyakarta", "City": "Yogyakarta", "Zip": "55281", "Phone": "0274-456160", "Fax": "-", "Links": []}, {"BrokerCode": "YP", "No": 26, "Address": "Kantor Perwakilan IDX Balikpapan, Jl. Jend. Sudirman No. 33B, Balikpapan, Kalimantan Timur", "City": "Balikpapan", "Zip": "-", "Phone": "-", "Fax": "-", "Links": []}, {"BrokerCode": "YP", "No": 27, "Address": "Kantor Pelayanan Pajak Pratama Surakarta, Jl. KH. Agus Salim No.1. Kota Surakarta, Prov. Jawa Tengah\n\n", "City": "Surakarta", "Zip": "57147", "Phone": "-", "Fax": "-", "Links": []}, {"BrokerCode": "YP", "No": 28, "Address": "Plaza Summarecon Bekasi Lt. 8\nJl. Bulevar Ahmad Yani Kav. K01\nSummarecon Bekasi\nKel. Harapan Mulya, Kec. Medan Satria", "City": "Bekasi", "Zip": "17142", "Phone": "021-89469900", "Fax": "-", "Links": []}], "Links": []}